{
"type": "FeatureCollection",
"name": "ESGOTO",
"crs": { "type": "name", "properties": { "name": "urn:ogc:def:crs:OGC:1.3:CRS84" } },
"features": [
{ "type": "Feature", "properties": { "Data de\nAbertura": "2025-01-10", "Horário\nde Abertura": "-", "Assunto": "Extravasamento de Esgoto", "Estrutura": "PV", "Endereço": "Rua 03, Quadra 19, Lote 11-B", "Bairro": "Parque Betel", "Tema": "ESGOTO", "Prazo de \nExecução": "1 dia", "Vencimento \ndo Prazo": "2025/01/11", "Situação": "Resolvido", "n° Protocolo": "2025002121030", "Solicitante": "Fiscalização AMAE", "Motivo": "Rota / Demanda Fisc.", "gerou PO?": "SIM", "n° do PO": "06/2025" }, "geometry": { "type": "Point", "coordinates": [ -50.939349, -17.788357 ] } },
{ "type": "Feature", "properties": { "Data de\nAbertura": "2025-01-10", "Horário\nde Abertura": "-", "Assunto": "Extravasamento de Esgoto", "Estrutura": "PV", "Endereço": "Rua Dorvail dos Reis, Quadra 05, Lote 10", "Bairro": "Vila Rosalina Borges", "Tema": "ESGOTO", "Prazo de \nExecução": "1 dia", "Vencimento \ndo Prazo": "2025/01/11", "Situação": "Resolvido", "n° Protocolo": "2025002121030", "Solicitante": "Fiscalização AMAE", "Motivo": "Rota / Demanda Fisc.", "gerou PO?": "SIM", "n° do PO": "07/2025" }, "geometry": { "type": "Point", "coordinates": [ -50.933398, -17.782197 ] } },
{ "type": "Feature", "properties": { "Data de\nAbertura": "2025-01-13", "Horário\nde Abertura": "-", "Assunto": "Extravasamento de Esgoto", "Estrutura": "PV", "Endereço": "Rua Maria de Lourdes, Quadra 04, Lote 84", "Bairro": "Dona Ilza", "Tema": "ESGOTO", "Prazo de \nExecução": "1 dia", "Vencimento \ndo Prazo": "2025/01/14", "Situação": "Resolvido", "n° Protocolo": "2025002299492", "Solicitante": "Ouvidoria AMAE", "Motivo": "Rota / Demanda Fisc.", "gerou PO?": "SIM", "n° do PO": "08/2025" }, "geometry": { "type": "Point", "coordinates": [ -50.92756, -17.818061 ] } },
{ "type": "Feature", "properties": { "Data de\nAbertura": "2025-01-22", "Horário\nde Abertura": "-", "Assunto": "Extravasamento de Esgoto", "Estrutura": "PV", "Endereço": "Rua 129, Quadra 38, Lote 15 e 16", "Bairro": "Jardim Presidente", "Tema": "ESGOTO", "Prazo de \nExecução": "1 dia", "Vencimento \ndo Prazo": "2025/01/23", "Situação": "Resolvido", "n° Protocolo": "2025005381580", "Solicitante": "Ouvidoria AMAE", "Motivo": "Usuário", "gerou PO?": "SIM", "n° do PO": "13/2025" }, "geometry": { "type": "Point", "coordinates": [ -50.943901, -17.804117 ] } },
{ "type": "Feature", "properties": { "Data de\nAbertura": "2025-01-22", "Horário\nde Abertura": "-", "Assunto": "Extravasamento de Esgoto", "Estrutura": "TIL", "Endereço": "Rua Xerentes, esquina com Rua Caranjás, Quadra 08, Lote 32", "Bairro": "Parque das Laranjeiras", "Tema": "ESGOTO", "Prazo de \nExecução": "1 dia", "Vencimento \ndo Prazo": "2025/01/23", "Situação": "Resolvido", "n° Protocolo": "2025005606485", "Solicitante": "Ouvidoria AMAE", "Motivo": "Usuário", "gerou PO?": "SIM", "n° do PO": "14/2025" }, "geometry": { "type": "Point", "coordinates": [ -50.955725, -17.806831 ] } },
{ "type": "Feature", "properties": { "Data de\nAbertura": "2025-01-23", "Horário\nde Abertura": "-", "Assunto": "Extravasamento de Esgoto", "Estrutura": "PV", "Endereço": "Rua Arara, Quadra 28, Lote 18", "Bairro": "Céu Azul", "Tema": "ESGOTO", "Prazo de \nExecução": "1 dia", "Vencimento \ndo Prazo": "2025/01/24", "Situação": "Resolvido", "n° Protocolo": "2025004863239", "Solicitante": "Ouvidoria AMAE", "Motivo": "Usuário", "gerou PO?": "SIM", "n° do PO": "17/2025" }, "geometry": { "type": "Point", "coordinates": [ -50.90546, -17.756273 ] } },
{ "type": "Feature", "properties": { "Data de\nAbertura": "2025-01-24", "Horário\nde Abertura": "-", "Assunto": "Extravasamento de Esgoto", "Estrutura": "PV", "Endereço": "Rua 129, Quadra 38, Lote 15 e 16", "Bairro": "Jardim Presidente", "Tema": "ESGOTO", "Prazo de \nExecução": "1 dia", "Vencimento \ndo Prazo": "2025/01/25", "Situação": "Resolvido", "n° Protocolo": "RA2291532025", "Solicitante": "Ouvidoria AMAE", "Motivo": "Usuário", "gerou PO?": "SIM", "n° do PO": "20/2025" }, "geometry": { "type": "Point", "coordinates": [ -50.943901, -17.804117 ] } },
{ "type": "Feature", "properties": { "Data de\nAbertura": "2025-01-27", "Horário\nde Abertura": "-", "Assunto": "Extravasamento de Esgoto", "Estrutura": "PV", "Endereço": "Rua João Vaiano, n°250, Quadra 61, Lote 09", "Bairro": "Odília", "Tema": "ESGOTO", "Prazo de \nExecução": "1 dia", "Vencimento \ndo Prazo": "2025/01/28", "Situação": "Resolvido", "n° Protocolo": "2025007412823", "Solicitante": "Ouvidoria AMAE", "Motivo": "Usuário", "gerou PO?": "SIM", "n° do PO": "22/2025" }, "geometry": { "type": "Point", "coordinates": [ -50.941673, -17.795545 ] } },
{ "type": "Feature", "properties": { "Data de\nAbertura": "2025-01-28", "Horário\nde Abertura": "-", "Assunto": "Extravasamento de Esgoto", "Estrutura": "PV", "Endereço": "Rua 25, esquina com Rua 02, Quadra 07, Lote 08", "Bairro": "Parque dos Buritis II", "Tema": "ESGOTO", "Prazo de \nExecução": "1 dia", "Vencimento \ndo Prazo": "2025/01/29", "Situação": "Resolvido", "n° Protocolo": "2025007776051", "Solicitante": "Ouvidoria AMAE", "Motivo": "Usuário", "gerou PO?": "SIM", "n° do PO": "24/2025" }, "geometry": { "type": "Point", "coordinates": [ -50.933961, -17.810273 ] } },
{ "type": "Feature", "properties": { "Data de\nAbertura": "2025-01-28", "Horário\nde Abertura": "-", "Assunto": "Extravasamento de Esgoto", "Estrutura": "PV", "Endereço": "Rua Dorvail dos Reis, Quadra 05, Lote 10", "Bairro": "Vila Rosalina Borges", "Tema": "ESGOTO", "Prazo de \nExecução": "1 dia", "Vencimento \ndo Prazo": "2025/01/29", "Situação": "Resolvido", "n° Protocolo": "2025007776051", "Solicitante": "Ouvidoria AMAE", "Motivo": "Usuário", "gerou PO?": "SIM", "n° do PO": "25/2025" }, "geometry": { "type": "Point", "coordinates": [ -50.933398, -17.782197 ] } },
{ "type": "Feature", "properties": { "Data de\nAbertura": "2025-01-29", "Horário\nde Abertura": "-", "Assunto": "Extravasamento de Esgoto", "Estrutura": "PV", "Endereço": "Rua Santiago, esquina com Rua Bolívia, Quadra 06, Lote 25", "Bairro": "Parque das Paineiras", "Tema": "ESGOTO", "Prazo de \nExecução": "1 dia", "Vencimento \ndo Prazo": "2025/01/30", "Situação": "Resolvido", "n° Protocolo": "RA15575822023", "Solicitante": "Fiscalização AMAE", "Motivo": "Rota / Demanda Fisc.", "gerou PO?": "SIM", "n° do PO": "26/2025" }, "geometry": { "type": "Point", "coordinates": [ -50.932011, -17.824523 ] } },
{ "type": "Feature", "properties": { "Data de\nAbertura": "2025-01-30", "Horário\nde Abertura": "-", "Assunto": "Extravasamento de Esgoto", "Estrutura": "PV", "Endereço": "Rua Um, Quadra 16, Lote 02", "Bairro": "Promissão", "Tema": "ESGOTO", "Prazo de \nExecução": "1 dia", "Vencimento \ndo Prazo": "2025/01/31", "Situação": "Resolvido", "n° Protocolo": "2025008628188\n2025014001302", "Solicitante": "Ouvidoria AMAE", "Motivo": "Rota / Demanda Fisc.", "gerou PO?": "SIM", "n° do PO": "28/2025" }, "geometry": { "type": "Point", "coordinates": [ -50.930936, -17.818709 ] } },
{ "type": "Feature", "properties": { "Data de\nAbertura": "2025-01-31", "Horário\nde Abertura": "-", "Assunto": "Extravasamento de Esgoto", "Estrutura": "PV", "Endereço": "Rua Dona Maricota, Quadra 13, Lote 08", "Bairro": "Odília", "Tema": "ESGOTO", "Prazo de \nExecução": "1 dia", "Vencimento \ndo Prazo": "2025/02/01", "Situação": "Resolvido", "n° Protocolo": "2025008990987", "Solicitante": "Ouvidoria AMAE", "Motivo": "Rota / Demanda Fisc.", "gerou PO?": "SIM", "n° do PO": "30/2025" }, "geometry": { "type": "Point", "coordinates": [ -50.93913, -17.797796 ] } },
{ "type": "Feature", "properties": { "Data de\nAbertura": "2025-01-31", "Horário\nde Abertura": "-", "Assunto": "Extravasamento de Esgoto", "Estrutura": "PV", "Endereço": "Rua Dorvail dos Reis, Quadra 05, Lote 12", "Bairro": "Vila Rosalina Borges", "Tema": "ESGOTO", "Prazo de \nExecução": "1 dia", "Vencimento \ndo Prazo": "2025/02/01", "Situação": "Resolvido", "n° Protocolo": "2025010556881", "Solicitante": "Ouvidoria AMAE", "Motivo": "Usuário", "gerou PO?": "SIM", "n° do PO": "31/2025" }, "geometry": { "type": "Point", "coordinates": [ -50.932948, -17.782145 ] } },
{ "type": "Feature", "properties": { "Data de\nAbertura": "2025-02-10", "Horário\nde Abertura": "-", "Assunto": "Extravasamento de Esgoto", "Estrutura": "PV", "Endereço": "Rua joaquim Fonseca, Quadra 06, Lote 03 e 04", "Bairro": "Odília", "Tema": "ESGOTO", "Prazo de \nExecução": "1 dia", "Vencimento \ndo Prazo": "2025/02/11", "Situação": "Resolvido", "n° Protocolo": "2025012836326", "Solicitante": "Ouvidoria AMAE", "Motivo": "Usuário", "gerou PO?": "SIM", "n° do PO": "36/2025" }, "geometry": { "type": "Point", "coordinates": [ -50.940817, -17.798951 ] } },
{ "type": "Feature", "properties": { "Data de\nAbertura": "2025-02-11", "Horário\nde Abertura": "-", "Assunto": "Extravasamento de Esgoto", "Estrutura": "PV", "Endereço": "Rua das Palmeiras, Quadra 44, Lote 22", "Bairro": "Nilson Veloso I", "Tema": "ESGOTO", "Prazo de \nExecução": "1 dia", "Vencimento \ndo Prazo": "2025/02/12", "Situação": "Resolvido", "n° Protocolo": "2025013119466", "Solicitante": "Ouvidoria AMAE", "Motivo": "Usuário", "gerou PO?": "SIM", "n° do PO": "37/2025" }, "geometry": { "type": "Point", "coordinates": [ -50.894424, -17.750137 ] } },
{ "type": "Feature", "properties": { "Data de\nAbertura": "2025-02-13", "Horário\nde Abertura": "-", "Assunto": "Extravasamento de Esgoto", "Estrutura": "PV", "Endereço": "Rua 02, esquina com Rua Campestre, Quadra 12, Lote 06", "Bairro": "Solar Campestre", "Tema": "ESGOTO", "Prazo de \nExecução": "1 dia", "Vencimento \ndo Prazo": "2025/02/14", "Situação": "Resolvido", "n° Protocolo": "2025014274490", "Solicitante": "Ouvidoria AMAE", "Motivo": "Usuário", "gerou PO?": "SIM", "n° do PO": "40/2025" }, "geometry": { "type": "Point", "coordinates": [ -50.938509, -17.805617 ] } },
{ "type": "Feature", "properties": { "Data de\nAbertura": "2025-02-13", "Horário\nde Abertura": "-", "Assunto": "Extravasamento de Esgoto", "Estrutura": "PV", "Endereço": "Av. Alameda das Laranjeiras ", "Bairro": "Parque das Laranjeiras", "Tema": "ESGOTO", "Prazo de \nExecução": "1 dia", "Vencimento \ndo Prazo": "2025/02/14", "Situação": "Resolvido", "n° Protocolo": "RA4395432025", "Solicitante": "Ouvidoria AMAE", "Motivo": "Rota / Demanda Fisc.", "gerou PO?": "SIM", "n° do PO": "41/2025" }, "geometry": { "type": "Point", "coordinates": [ -50.948499, -17.809885 ] } },
{ "type": "Feature", "properties": { "Data de\nAbertura": "2025-02-18", "Horário\nde Abertura": "-", "Assunto": "Extravasamento de Esgoto", "Estrutura": "PV", "Endereço": "Rua 25, esquina com Rua 02, Quadra 07, Lote 08", "Bairro": "Parque dos Buritis II", "Tema": "ESGOTO", "Prazo de \nExecução": "1 dia", "Vencimento \ndo Prazo": "2025/02/19", "Situação": "Resolvido", "n° Protocolo": "2025016363406", "Solicitante": "Ouvidoria AMAE", "Motivo": "Rota / Demanda Fisc.", "gerou PO?": "SIM", "n° do PO": "43/2025" }, "geometry": { "type": "Point", "coordinates": [ -50.933961, -17.810273 ] } },
{ "type": "Feature", "properties": { "Data de\nAbertura": "2025-02-21", "Horário\nde Abertura": "-", "Assunto": "Extravasamento de Esgoto", "Estrutura": "PV", "Endereço": "Rua 105, Quadra 20, Lote 10", "Bairro": "Jardim Presidente", "Tema": "ESGOTO", "Prazo de \nExecução": "1 dia", "Vencimento \ndo Prazo": "2025/02/22", "Situação": "Resolvido", "n° Protocolo": "2025017787420", "Solicitante": "Ouvidoria AMAE", "Motivo": "Usuário", "gerou PO?": "SIM", "n° do PO": "44/2025" }, "geometry": { "type": "Point", "coordinates": [ -50.948104, -17.804244 ] } },
{ "type": "Feature", "properties": { "Data de\nAbertura": "2025-02-26", "Horário\nde Abertura": "-", "Assunto": "Extravasamento de Esgoto", "Estrutura": "PV", "Endereço": "Rua 137, Quadra 03, Lote 01", "Bairro": "Lourdes", "Tema": "ESGOTO", "Prazo de \nExecução": "1 dia", "Vencimento \ndo Prazo": "2025/02/27", "Situação": "Resolvido", "n° Protocolo": "2025019272177", "Solicitante": "Ouvidoria AMAE", "Motivo": "Usuário", "gerou PO?": "SIM", "n° do PO": "45/2025" }, "geometry": { "type": "Point", "coordinates": [ -50.950551, -17.804764 ] } },
{ "type": "Feature", "properties": { "Data de\nAbertura": "2025-02-26", "Horário\nde Abertura": "-", "Assunto": "Extravasamento de Esgoto", "Estrutura": "PV", "Endereço": "Rua Chico Xavier, Quadra 164, Lote 06", "Bairro": "Setor Pauzanes", "Tema": "ESGOTO", "Prazo de \nExecução": "1 dia", "Vencimento \ndo Prazo": "2025/02/27", "Situação": "Resolvido", "n° Protocolo": "-", "Solicitante": "Fiscalização AMAE", "Motivo": "Rota / Demanda Fisc.", "gerou PO?": "SIM", "n° do PO": "46/2025" }, "geometry": { "type": "Point", "coordinates": [ -50.916539, -17.764287 ] } },
{ "type": "Feature", "properties": { "Data de\nAbertura": "2025-02-26", "Horário\nde Abertura": "-", "Assunto": "Extravasamento de Esgoto", "Estrutura": "TIL", "Endereço": "Rua Garibalde Leão, Quadra 08, Lote 10\nRua Garibalde Leão, Quadra 12, Lote 04", "Bairro": "Martins", "Tema": "ESGOTO", "Prazo de \nExecução": "1 dia", "Vencimento \ndo Prazo": "2025/02/27", "Situação": "Resolvido", "n° Protocolo": "2025019268811", "Solicitante": "Fiscalização AMAE", "Motivo": "Rota / Demanda Fisc.", "gerou PO?": "SIM", "n° do PO": "47/2025" }, "geometry": { "type": "Point", "coordinates": [ -50.914153, -17.773342 ] } },
{ "type": "Feature", "properties": { "Data de\nAbertura": "2025-02-26", "Horário\nde Abertura": "-", "Assunto": "Extravasamento de Esgoto", "Estrutura": "PV", "Endereço": "Rua Lira L. Rocha, Quadra 07, Lote 01 - 14", "Bairro": "Vila Mariana I", "Tema": "ESGOTO", "Prazo de \nExecução": "1 dia", "Vencimento \ndo Prazo": "2025/02/27", "Situação": "Resolvido", "n° Protocolo": "2025019268811", "Solicitante": "Ouvidoria AMAE", "Motivo": "Usuário", "gerou PO?": "SIM", "n° do PO": " 48/2025" }, "geometry": { "type": "Point", "coordinates": [ -50.927952, -17.811598 ] } },
{ "type": "Feature", "properties": { "Data de\nAbertura": "2025-02-28", "Horário\nde Abertura": "-", "Assunto": "Extravasamento de Esgoto", "Estrutura": "PV", "Endereço": "Rua Garibalde Leão, Quadra 08, Lote 10", "Bairro": "Martins", "Tema": "ESGOTO", "Prazo de \nExecução": "1 dia", "Vencimento \ndo Prazo": "2025/03/01", "Situação": "Resolvido", "n° Protocolo": "2025019435254", "Solicitante": "Fiscalização AMAE", "Motivo": "Rota / Demanda Fisc.", "gerou PO?": "SIM", "n° do PO": "49/2025" }, "geometry": { "type": "Point", "coordinates": [ -50.914153, -17.773342 ] } },
{ "type": "Feature", "properties": { "Data de\nAbertura": "2025-02-28", "Horário\nde Abertura": "-", "Assunto": "Extravasamento de Esgoto", "Estrutura": "PV", "Endereço": "Rua 25, esquina com Rua 02, Quadra 07, Lote 08", "Bairro": "Parque dos Buritis II", "Tema": "ESGOTO", "Prazo de \nExecução": "1 dia", "Vencimento \ndo Prazo": "2025/03/01", "Situação": "Resolvido", "n° Protocolo": "2025019447143", "Solicitante": "Ouvidoria AMAE", "Motivo": "Rota / Demanda Fisc.", "gerou PO?": "SIM", "n° do PO": "51/2025" }, "geometry": { "type": "Point", "coordinates": [ -50.933961, -17.810273 ] } },
{ "type": "Feature", "properties": { "Data de\nAbertura": "2025-02-28", "Horário\nde Abertura": "-", "Assunto": "Extravasamento de Esgoto", "Estrutura": "INTERNO", "Endereço": "Rua SA-14, Quadra 20, Lote 08 ", "Bairro": "Solar dos Ataídes II", "Tema": "ESGOTO", "Prazo de \nExecução": "5 dias", "Vencimento \ndo Prazo": "2025/03/04", "Situação": "Resolvido", "n° Protocolo": "2025019477518", "Solicitante": "Fiscalização AMAE", "Motivo": "Usuário", "gerou PO?": "NÃO", "n° do PO": "-" }, "geometry": { "type": "Point", "coordinates": [ -50.943379, -17.76742 ] } },
{ "type": "Feature", "properties": { "Data de\nAbertura": "2025-03-12", "Horário\nde Abertura": "-", "Assunto": "Extravasamento de Esgoto", "Estrutura": "PV", "Endereço": "Rua 02, Quadra 12", "Bairro": "Residencial Atalaia", "Tema": "ESGOTO", "Prazo de \nExecução": "1 dia", "Vencimento \ndo Prazo": "2025/03/13", "Situação": "Resolvido", "n° Protocolo": "-", "Solicitante": "Fiscalização AMAE", "Motivo": "Usuário", "gerou PO?": "NÃO", "n° do PO": "-" }, "geometry": { "type": "Point", "coordinates": [ -50.923672, -17.82306 ] } },
{ "type": "Feature", "properties": { "Data de\nAbertura": "2025-03-13", "Horário\nde Abertura": "-", "Assunto": "Extravasamento de Esgoto", "Estrutura": "PV", "Endereço": "Rua 07, Quadra 09, Lote 30", "Bairro": "Serra Dourada", "Tema": "ESGOTO", "Prazo de \nExecução": "1 dia", "Vencimento \ndo Prazo": "2025/03/14", "Situação": "Resolvido", "n° Protocolo": "2025020374808", "Solicitante": "Fiscalização AMAE", "Motivo": "Usuário", "gerou PO?": "NÃO", "n° do PO": "-" }, "geometry": { "type": "Point", "coordinates": [ -50.923602, -17.823113 ] } },
{ "type": "Feature", "properties": { "Data de\nAbertura": "2025-03-14", "Horário\nde Abertura": "-", "Assunto": "Extravasamento de Esgoto", "Estrutura": "PV", "Endereço": "Rua 16, n°81", "Bairro": "Jardim Goiás", "Tema": "ESGOTO", "Prazo de \nExecução": "1 dia", "Vencimento \ndo Prazo": "2025/03/15", "Situação": "Resolvido", "n° Protocolo": "2025020458220", "Solicitante": "Fiscalização AMAE", "Motivo": "Rota / Demanda Fisc.", "gerou PO?": "NÃO", "n° do PO": "-" }, "geometry": { "type": "Point", "coordinates": [ -50.915408, -17.788267 ] } },
{ "type": "Feature", "properties": { "Data de\nAbertura": "2025-03-14", "Horário\nde Abertura": "-", "Assunto": "Extravasamento de Esgoto", "Estrutura": "PV", "Endereço": "Rua Teodoro Carolina, n°228, Quadra 03, Lote 05", "Bairro": "Vila Rosalina Borges", "Tema": "ESGOTO", "Prazo de \nExecução": "1 dia", "Vencimento \ndo Prazo": "2025/03/15", "Situação": "Resolvido", "n° Protocolo": "2025020460720", "Solicitante": "Fiscalização AMAE", "Motivo": "Rota / Demanda Fisc.", "gerou PO?": "NÃO", "n° do PO": "-" }, "geometry": { "type": "Point", "coordinates": [ -50.929604, -17.781669 ] } },
{ "type": "Feature", "properties": { "Data de\nAbertura": "2025-03-17", "Horário\nde Abertura": "-", "Assunto": "Extravasamento de Esgoto", "Estrutura": "PV", "Endereço": "Rua JA-10, esquina com PV-19, Quadra 39, Lote 04", "Bairro": "Dom Miguel", "Tema": "ESGOTO", "Prazo de \nExecução": "1 dia", "Vencimento \ndo Prazo": "2025/03/18", "Situação": "Resolvido", "n° Protocolo": "2025020601022", "Solicitante": "Fiscalização AMAE", "Motivo": "Rota / Demanda Fisc.", "gerou PO?": "NÃO", "n° do PO": "-" }, "geometry": { "type": "Point", "coordinates": [ -50.918456, -17.758025 ] } },
{ "type": "Feature", "properties": { "Data de\nAbertura": "2025-03-17", "Horário\nde Abertura": "-", "Assunto": "Extravasamento de Esgoto", "Estrutura": "PV", "Endereço": "Rua 27, Quadra 11, Lote 07", "Bairro": "Promissão", "Tema": "ESGOTO", "Prazo de \nExecução": "1 dia", "Vencimento \ndo Prazo": "2025/03/18", "Situação": "Resolvido", "n° Protocolo": "2025020625576", "Solicitante": "Fiscalização AMAE", "Motivo": "Rota / Demanda Fisc.", "gerou PO?": "NÃO", "n° do PO": "-" }, "geometry": { "type": "Point", "coordinates": [ -50.925096, -17.829309 ] } },
{ "type": "Feature", "properties": { "Data de\nAbertura": "2025-03-24", "Horário\nde Abertura": "-", "Assunto": "Extravasamento de Esgoto", "Estrutura": "PV", "Endereço": "Rua JA-10, esquina com PV-19, Quadra 39, Lote 04", "Bairro": "Dom Miguel", "Tema": "ESGOTO", "Prazo de \nExecução": "1 dia", "Vencimento \ndo Prazo": "2025/03/25", "Situação": "Resolvido", "n° Protocolo": "2025021075120", "Solicitante": "Fiscalização AMAE", "Motivo": "Usuário", "gerou PO?": "NÃO", "n° do PO": "-" }, "geometry": { "type": "Point", "coordinates": [ -50.918456, -17.758025 ] } },
{ "type": "Feature", "properties": { "Data de\nAbertura": "2025-03-25", "Horário\nde Abertura": "-", "Assunto": "Extravasamento de Esgoto", "Estrutura": "PV", "Endereço": "Rua Honorio Quintiliano da Silva, Quadra 11, Lote 07 ", "Bairro": "Martins", "Tema": "ESGOTO", "Prazo de \nExecução": "1 dia", "Vencimento \ndo Prazo": "2025/03/26", "Situação": "Resolvido", "n° Protocolo": "2025021361491", "Solicitante": "Ouvidoria AMAE", "Motivo": "Usuário", "gerou PO?": "NÃO", "n° do PO": "-" }, "geometry": { "type": "Point", "coordinates": [ -50.915898, -17.762212 ] } },
{ "type": "Feature", "properties": { "Data de\nAbertura": "2025-03-25", "Horário\nde Abertura": "-", "Assunto": "Extravasamento de Esgoto", "Estrutura": "PV", "Endereço": "Rua Garibalde Leão, n°375", "Bairro": "Setor Pauzanes", "Tema": "ESGOTO", "Prazo de \nExecução": "1 dia", "Vencimento \ndo Prazo": "2025/03/26", "Situação": "Resolvido", "n° Protocolo": "2025021444621", "Solicitante": "Ouvidoria AMAE", "Motivo": "Rota / Demanda Fisc.", "gerou PO?": "NÃO", "n° do PO": "-" }, "geometry": { "type": "Point", "coordinates": [ -50.922225, -17.775054 ] } },
{ "type": "Feature", "properties": { "Data de\nAbertura": "2025-03-26", "Horário\nde Abertura": "-", "Assunto": "Extravasamento de Esgoto", "Estrutura": "PV", "Endereço": "Rua O, esquina com Rua C", "Bairro": "Parque Solar do Agreste", "Tema": "ESGOTO", "Prazo de \nExecução": "1 dia", "Vencimento \ndo Prazo": "2025/03/27", "Situação": "Resolvido", "n° Protocolo": "2025021796242", "Solicitante": "Ouvidoria AMAE", "Motivo": "Usuário", "gerou PO?": "NÃO", "n° do PO": "-" }, "geometry": { "type": "Point", "coordinates": [ -50.939715, -17.814624 ] } },
{ "type": "Feature", "properties": { "Data de\nAbertura": "2025-03-27", "Horário\nde Abertura": "-", "Assunto": "Extravasamento de Esgoto", "Estrutura": "TIL", "Endereço": "Rua RC-11, Quadra 09, Lote N", "Bairro": "Residencial Canaã", "Tema": "ESGOTO", "Prazo de \nExecução": "1 dia", "Vencimento \ndo Prazo": "2025/03/28", "Situação": "Resolvido", "n° Protocolo": "2025022119430", "Solicitante": "Ouvidoria AMAE", "Motivo": "Usuário", "gerou PO?": "NÃO", "n° do PO": "-" }, "geometry": { "type": "Point", "coordinates": [ -50.935939, -17.77822 ] } },
{ "type": "Feature", "properties": { "Data de\nAbertura": "2025-03-27", "Horário\nde Abertura": "-", "Assunto": "Extravasamento de Esgoto", "Estrutura": "PV", "Endereço": "Rua Lourenço Pereira dos Santos, Quadra 13, Lote 08", "Bairro": "Jardim Neves", "Tema": "ESGOTO", "Prazo de \nExecução": "1 dia", "Vencimento \ndo Prazo": "2025/03/28", "Situação": "Resolvido", "n° Protocolo": "2025022210250", "Solicitante": "Ouvidoria AMAE", "Motivo": "Usuário", "gerou PO?": "NÃO", "n° do PO": "-" }, "geometry": { "type": "Point", "coordinates": [ -50.93584, -17.794162 ] } },
{ "type": "Feature", "properties": { "Data de\nAbertura": "2025-03-28", "Horário\nde Abertura": "-", "Assunto": "Manutenção", "Estrutura": "PV", "Endereço": "Rua José Elias, Quadra 10, Lote 01-B", "Bairro": "Vila Mariana I", "Tema": "ESGOTO", "Prazo de \nExecução": "10 dias", "Vencimento \ndo Prazo": "2025/04/08", "Situação": "Resolvido", "n° Protocolo": "2025022232385", "Solicitante": "Ouvidoria AMAE", "Motivo": "Usuário", "gerou PO?": "NÃO", "n° do PO": "-" }, "geometry": { "type": "Point", "coordinates": [ -50.924344, -17.811143 ] } },
{ "type": "Feature", "properties": { "Data de\nAbertura": "2025-04-01", "Horário\nde Abertura": "-", "Assunto": "Extravasamento de Esgoto", "Estrutura": "PV", "Endereço": "Rua Jacarandá, Quadra 42, Lote 19", "Bairro": "Nilson Veloso I", "Tema": "ESGOTO", "Prazo de \nExecução": "1 dia", "Vencimento \ndo Prazo": "2025/04/02", "Situação": "Resolvido", "n° Protocolo": "2025023470735", "Solicitante": "Ouvidoria AMAE", "Motivo": "Rota / Demanda Fisc.", "gerou PO?": "NÃO", "n° do PO": "-" }, "geometry": { "type": "Point", "coordinates": [ -50.895933, -17.7494 ] } },
{ "type": "Feature", "properties": { "Data de\nAbertura": "2025-04-01", "Horário\nde Abertura": "-", "Assunto": "Extravasamento de Esgoto", "Estrutura": "PV", "Endereço": "Rua das Palmeiras, Quadra 44, Lote 22", "Bairro": "Nilson Veloso I", "Tema": "ESGOTO", "Prazo de \nExecução": "1 dia", "Vencimento \ndo Prazo": "2025/04/02", "Situação": "Resolvido", "n° Protocolo": "2025023471715", "Solicitante": "Ouvidoria AMAE", "Motivo": "Rota / Demanda Fisc.", "gerou PO?": "NÃO", "n° do PO": "-" }, "geometry": { "type": "Point", "coordinates": [ -50.894424, -17.750137 ] } },
{ "type": "Feature", "properties": { "Data de\nAbertura": "2025-04-03", "Horário\nde Abertura": "-", "Assunto": "Extravasamento de Esgoto", "Estrutura": "PV", "Endereço": "Rua 34, Quadra 19-A, Lote 01", "Bairro": "Vila Santa Cruz 1", "Tema": "ESGOTO", "Prazo de \nExecução": "1 dia", "Vencimento \ndo Prazo": "2025/04/04", "Situação": "Resolvido", "n° Protocolo": "2025024201045", "Solicitante": "Ouvidoria AMAE", "Motivo": "Rota / Demanda Fisc.", "gerou PO?": "NÃO", "n° do PO": "-" }, "geometry": { "type": "Point", "coordinates": [ -50.926414, -17.830779 ] } },
{ "type": "Feature", "properties": { "Data de\nAbertura": "2025-04-04", "Horário\nde Abertura": "-", "Assunto": "Extravasamento de Esgoto", "Estrutura": "PV", "Endereço": "Rua Teodoro Carolina, n°228, Quadra 03, Lote 05", "Bairro": "Vila Rosalina Borges", "Tema": "ESGOTO", "Prazo de \nExecução": "1 dia", "Vencimento \ndo Prazo": "2025/04/05", "Situação": "Resolvido", "n° Protocolo": "2025024377232", "Solicitante": "Ouvidoria AMAE", "Motivo": "Rota / Demanda Fisc.", "gerou PO?": "NÃO", "n° do PO": "-" }, "geometry": { "type": "Point", "coordinates": [ -50.929604, -17.781669 ] } },
{ "type": "Feature", "properties": { "Data de\nAbertura": "2025-04-07", "Horário\nde Abertura": "-", "Assunto": "Extravasamento de Esgoto", "Estrutura": "PV", "Endereço": "Rua Dom Pedro II, Quadra 60, Lote 17", "Bairro": "Santo Agostinho", "Tema": "ESGOTO", "Prazo de \nExecução": "1 dia", "Vencimento \ndo Prazo": "2025/04/08", "Situação": "Resolvido", "n° Protocolo": "2025025050377", "Solicitante": "Ouvidoria AMAE", "Motivo": "Rota / Demanda Fisc.", "gerou PO?": "NÃO", "n° do PO": "-" }, "geometry": { "type": "Point", "coordinates": [ -50.900832, -17.779865 ] } },
{ "type": "Feature", "properties": { "Data de\nAbertura": "2025-04-08", "Horário\nde Abertura": "-", "Assunto": "Extravasamento de Esgoto", "Estrutura": "PV", "Endereço": "Rua Afonso M. Arantes, Quadra 43, Lote 11-A", "Bairro": "Jardim das Margaridas", "Tema": "ESGOTO", "Prazo de \nExecução": "1 dia", "Vencimento \ndo Prazo": "2025/04/09", "Situação": "Resolvido", "n° Protocolo": "2025025564052", "Solicitante": "Ouvidoria AMAE", "Motivo": "Rota / Demanda Fisc.", "gerou PO?": "NÃO", "n° do PO": "-" }, "geometry": { "type": "Point", "coordinates": [ -50.910156, -17.77669 ] } },
{ "type": "Feature", "properties": { "Data de\nAbertura": "2025-04-08", "Horário\nde Abertura": "-", "Assunto": "Extravasamento de Esgoto", "Estrutura": "PV", "Endereço": "Rua Teodoro Carolina, n°228, Quadra 03, Lote 05", "Bairro": "Vila Rosalina Borges", "Tema": "ESGOTO", "Prazo de \nExecução": "1 dia", "Vencimento \ndo Prazo": "2025/04/09", "Situação": "Resolvido", "n° Protocolo": "2025025668818", "Solicitante": "Ouvidoria AMAE", "Motivo": "Rota / Demanda Fisc.", "gerou PO?": "NÃO", "n° do PO": "-" }, "geometry": { "type": "Point", "coordinates": [ -50.929604, -17.781669 ] } },
{ "type": "Feature", "properties": { "Data de\nAbertura": "2025-04-08", "Horário\nde Abertura": "-", "Assunto": "Extravasamento de Esgoto", "Estrutura": "PV", "Endereço": "Rua 08, n°35, Quadra 05, L.t08", "Bairro": "Vila Amália I", "Tema": "ESGOTO", "Prazo de \nExecução": "1 dia", "Vencimento \ndo Prazo": "2025/04/09", "Situação": "Resolvido", "n° Protocolo": "2025025742260", "Solicitante": "Ouvidoria AMAE", "Motivo": "Rota / Demanda Fisc.", "gerou PO?": "NÃO", "n° do PO": "-" }, "geometry": { "type": "Point", "coordinates": [ -50.91739, -17.797641 ] } },
{ "type": "Feature", "properties": { "Data de\nAbertura": "2025-04-11", "Horário\nde Abertura": "-", "Assunto": "Extravasamento de Esgoto", "Estrutura": "PV", "Endereço": "Rua 20, n°159", "Bairro": "Popular", "Tema": "ESGOTO", "Prazo de \nExecução": "1 dia", "Vencimento \ndo Prazo": "2025/04/12", "Situação": "Resolvido", "n° Protocolo": "2025026878913", "Solicitante": "Ouvidoria AMAE", "Motivo": "Rota / Demanda Fisc.", "gerou PO?": "NÃO", "n° do PO": "-" }, "geometry": { "type": "Point", "coordinates": [ -50.91501, -17.779103 ] } },
{ "type": "Feature", "properties": { "Data de\nAbertura": "2025-04-14", "Horário\nde Abertura": "-", "Assunto": "Extravasamento de Esgoto", "Estrutura": "INTERNO", "Endereço": "Rua Henrique Rocha, Quadra 01, n°05", "Bairro": "Vila Mariana I", "Tema": "ESGOTO", "Prazo de \nExecução": "1 dia", "Vencimento \ndo Prazo": "2025/04/15", "Situação": "Resolvido", "n° Protocolo": "2025027435314", "Solicitante": "Ouvidoria AMAE", "Motivo": "Usuário", "gerou PO?": "NÃO", "n° do PO": "-" }, "geometry": { "type": "Point", "coordinates": [ -50.926218, -17.810363 ] } },
{ "type": "Feature", "properties": { "Data de\nAbertura": "2025-04-15", "Horário\nde Abertura": "-", "Assunto": "Extravasamento de Esgoto", "Estrutura": "TIL", "Endereço": "Rua 110, n°11", "Bairro": "Morada do Sol Prolongamento", "Tema": "ESGOTO", "Prazo de \nExecução": "1 dia", "Vencimento \ndo Prazo": "2025/04/16", "Situação": "Resolvido", "n° Protocolo": "2025028126587", "Solicitante": "Ouvidoria AMAE", "Motivo": "Usuário", "gerou PO?": "NÃO", "n° do PO": "-" }, "geometry": { "type": "Point", "coordinates": [ -50.953717, -17.79635 ] } },
{ "type": "Feature", "properties": { "Data de\nAbertura": "2025-04-16", "Horário\nde Abertura": "-", "Assunto": "Extravasamento de Esgoto", "Estrutura": "PV", "Endereço": "Rua 02, Quadra 12, Lote 340", "Bairro": "Residencial Atalaia", "Tema": "ESGOTO", "Prazo de \nExecução": "1 dia", "Vencimento \ndo Prazo": "2025/04/17", "Situação": "Resolvido", "n° Protocolo": "2025028445220", "Solicitante": "Ouvidoria AMAE", "Motivo": "Rota / Demanda Fisc.", "gerou PO?": "NÃO", "n° do PO": "-" }, "geometry": { "type": "Point", "coordinates": [ -50.923672, -17.82306 ] } },
{ "type": "Feature", "properties": { "Data de\nAbertura": "2025-04-23", "Horário\nde Abertura": "-", "Assunto": "Extravasamento de Esgoto", "Estrutura": "PV", "Endereço": "Rua 11, Quadra 11, Lote 33", "Bairro": "Parque dos Buritis II", "Tema": "ESGOTO", "Prazo de \nExecução": "1 dia", "Vencimento \ndo Prazo": "2025/04/24", "Situação": "Resolvido", "n° Protocolo": "2025029855833", "Solicitante": "Ouvidoria AMAE", "Motivo": "Usuário", "gerou PO?": "NÃO", "n° do PO": "-" }, "geometry": { "type": "Point", "coordinates": [ -50.937845, -17.813228 ] } },
{ "type": "Feature", "properties": { "Data de\nAbertura": "2025-04-23", "Horário\nde Abertura": "-", "Assunto": "Extravasamento de Esgoto", "Estrutura": "PV", "Endereço": "Rua PV-21, Quadra 20, Lote 02", "Bairro": "Parque Dom Miguel", "Tema": "ESGOTO", "Prazo de \nExecução": "1 dia", "Vencimento \ndo Prazo": "2025/04/24", "Situação": "Resolvido", "n° Protocolo": "2025029881176", "Solicitante": "Ouvidoria AMAE", "Motivo": "Rota / Demanda Fisc.", "gerou PO?": "NÃO", "n° do PO": "-" }, "geometry": { "type": "Point", "coordinates": [ -50.91655, -17.75544 ] } },
{ "type": "Feature", "properties": { "Data de\nAbertura": "2025-04-30", "Horário\nde Abertura": "-", "Assunto": "Extravasamento de Esgoto", "Estrutura": "PV", "Endereço": "Rua 73, n°1149, Quadra 12, Lote 08", "Bairro": "São João", "Tema": "ESGOTO", "Prazo de \nExecução": "1 dia", "Vencimento \ndo Prazo": "31/04/2025", "Situação": "Resolvido", "n° Protocolo": "2025032104860", "Solicitante": "Ouvidoria AMAE", "Motivo": "Usuário", "gerou PO?": "NÃO", "n° do PO": "-" }, "geometry": { "type": "Point", "coordinates": [ -50.910613, -17.776858 ] } },
{ "type": "Feature", "properties": { "Data de\nAbertura": "2025-04-30", "Horário\nde Abertura": "-", "Assunto": "Extravasamento de Esgoto", "Estrutura": "PV", "Endereço": "Rua B, esquina com Rua Celina Jaime Teixeira, Quadra 12, Lote 04", "Bairro": "Vila Mariana II", "Tema": "ESGOTO", "Prazo de \nExecução": "1 dia", "Vencimento \ndo Prazo": "31/04/2025", "Situação": "Resolvido", "n° Protocolo": "2025032108431", "Solicitante": "Ouvidoria AMAE", "Motivo": "Usuário", "gerou PO?": "NÃO", "n° do PO": "-" }, "geometry": { "type": "Point", "coordinates": [ -50.925872, -17.814786 ] } },
{ "type": "Feature", "properties": { "Data de\nAbertura": "2025-04-30", "Horário\nde Abertura": "-", "Assunto": "Extravasamento de Esgoto", "Estrutura": "PV", "Endereço": "Rua Modesto Araújo, Quadra 66, Lote 13", "Bairro": "Martins", "Tema": "ESGOTO", "Prazo de \nExecução": "1 dia", "Vencimento \ndo Prazo": "31/04/2025", "Situação": "Resolvido", "n° Protocolo": "2025032125018", "Solicitante": "Ouvidoria AMAE", "Motivo": "Rota / Demanda Fisc.", "gerou PO?": "NÃO", "n° do PO": "-" }, "geometry": { "type": "Point", "coordinates": [ -50.910834, -17.765775 ] } },
{ "type": "Feature", "properties": { "Data de\nAbertura": "2025-05-06", "Horário\nde Abertura": "-", "Assunto": "Extravasamento de Esgoto", "Estrutura": "PV", "Endereço": "Av. Emília Bailão Fonseca, Quadra 11, n°188", "Bairro": "Residencial Interlagos", "Tema": "ESGOTO", "Prazo de \nExecução": "1 dia", "Vencimento \ndo Prazo": "2025/05/07", "Situação": "Resolvido", "n° Protocolo": "2025033851707", "Solicitante": "Ouvidoria AMAE", "Motivo": "Rota / Demanda Fisc.", "gerou PO?": "NÃO", "n° do PO": "-" }, "geometry": { "type": "Point", "coordinates": [ -50.950579, -17.78872 ] } },
{ "type": "Feature", "properties": { "Data de\nAbertura": "2025-05-06", "Horário\nde Abertura": "-", "Assunto": "Extravasamento de Esgoto", "Estrutura": "PV", "Endereço": "Rua das Rosas, Quadra 68, Lote 09", "Bairro": "Jardim América Prolongamento", "Tema": "ESGOTO", "Prazo de \nExecução": "1 dia", "Vencimento \ndo Prazo": "2025/05/07", "Situação": "Resolvido", "n° Protocolo": "2025033854463\nRA11194052025", "Solicitante": "Ouvidoria AMAE", "Motivo": "Usuário", "gerou PO?": "NÃO", "n° do PO": "-" }, "geometry": { "type": "Point", "coordinates": [ -50.934255, -17.785545 ] } },
{ "type": "Feature", "properties": { "Data de\nAbertura": "2025-05-08", "Horário\nde Abertura": "-", "Assunto": "Extravasamento de Esgoto", "Estrutura": "PV", "Endereço": "Av. José Gonçalves Ataídes, Quadra 10, Lote 21", "Bairro": "Solar dos Ataídes I", "Tema": "ESGOTO", "Prazo de \nExecução": "1 dia", "Vencimento \ndo Prazo": "2025/05/09", "Situação": "Resolvido", "n° Protocolo": "2025034452300", "Solicitante": "Ouvidoria AMAE", "Motivo": "Usuário", "gerou PO?": "NÃO", "n° do PO": "-" }, "geometry": { "type": "Point", "coordinates": [ -50.946665, -17.770338 ] } },
{ "type": "Feature", "properties": { "Data de\nAbertura": "2025-05-09", "Horário\nde Abertura": "-", "Assunto": "Extravasamento de Esgoto", "Estrutura": "PV", "Endereço": "Rua 23, n°213, Quadra 09, Lote 13", "Bairro": "Martins", "Tema": "ESGOTO", "Prazo de \nExecução": "1 dia", "Vencimento \ndo Prazo": "2025/05/10", "Situação": "Resolvido", "n° Protocolo": "2025035873872", "Solicitante": "Ouvidoria AMAE", "Motivo": "Rota / Demanda Fisc.", "gerou PO?": "NÃO", "n° do PO": "-" }, "geometry": { "type": "Point", "coordinates": [ -50.909133, -17.775467 ] } },
{ "type": "Feature", "properties": { "Data de\nAbertura": "2025-05-13", "Horário\nde Abertura": "-", "Assunto": "Extravasamento de Esgoto", "Estrutura": "PV", "Endereço": "Rua Alameda Nestor Fonseca, Quadra 05, Lote 55", "Bairro": "Residencial Interlagos", "Tema": "ESGOTO", "Prazo de \nExecução": "1 dia", "Vencimento \ndo Prazo": "2025/05/14", "Situação": "Resolvido", "n° Protocolo": "2025037160814", "Solicitante": "Ouvidoria AMAE", "Motivo": "Usuário", "gerou PO?": "NÃO", "n° do PO": "-" }, "geometry": { "type": "Point", "coordinates": [ -50.946831, -17.783341 ] } },
{ "type": "Feature", "properties": { "Data de\nAbertura": "2025-05-14", "Horário\nde Abertura": "-", "Assunto": "Extravasamento de Esgoto", "Estrutura": "PV", "Endereço": "Av. Henrique Matias Henkes (Rua 25),\n esquina com Rua 09, Quadra 04, Lote  12", "Bairro": "Parque dos Buritis I", "Tema": "ESGOTO", "Prazo de \nExecução": "1 dia", "Vencimento \ndo Prazo": "2025/05/15", "Situação": "Resolvido", "n° Protocolo": "2025037363969", "Solicitante": "Ouvidoria AMAE", "Motivo": "Usuário", "gerou PO?": "NÃO", "n° do PO": "-" }, "geometry": { "type": "Point", "coordinates": [ -50.939024, -17.811216 ] } },
{ "type": "Feature", "properties": { "Data de\nAbertura": "2025-05-14", "Horário\nde Abertura": "-", "Assunto": "Extravasamento de Esgoto", "Estrutura": "PV", "Endereço": "Rua Rui Barbosa, n°1779", "Bairro": "Setor Central", "Tema": "ESGOTO", "Prazo de \nExecução": "1 dia", "Vencimento \ndo Prazo": "2025/05/15", "Situação": "Resolvido", "n° Protocolo": "2025037581747\n2025037469599", "Solicitante": "Ouvidoria AMAE", "Motivo": "Usuário", "gerou PO?": "NÃO", "n° do PO": "-" }, "geometry": { "type": "Point", "coordinates": [ -50.925741, -17.795283 ] } },
{ "type": "Feature", "properties": { "Data de\nAbertura": "2025-05-16", "Horário\nde Abertura": "-", "Assunto": "Extravasamento de Esgoto", "Estrutura": "PV", "Endereço": "Rua 13, n°282, Quadra 43, Lote 11", "Bairro": "Promissão", "Tema": "ESGOTO", "Prazo de \nExecução": "1 dia", "Vencimento \ndo Prazo": "2025/05/17", "Situação": "Resolvido", "n° Protocolo": "2025038482130", "Solicitante": "Ouvidoria AMAE", "Motivo": "Usuário", "gerou PO?": "NÃO", "n° do PO": "-" }, "geometry": { "type": "Point", "coordinates": [ -50.927692, -17.823235 ] } },
{ "type": "Feature", "properties": { "Data de\nAbertura": "2025-05-26", "Horário\nde Abertura": "-", "Assunto": "Extravasamento de Esgoto", "Estrutura": "PV", "Endereço": "Rua Rui Barbosa, n°1779", "Bairro": "Setor Central", "Tema": "ESGOTO", "Prazo de \nExecução": "1 dia", "Vencimento \ndo Prazo": "2025/05/27", "Situação": "Resolvido", "n° Protocolo": "2025041275922", "Solicitante": "Ouvidoria AMAE", "Motivo": "Usuário", "gerou PO?": "NÃO", "n° do PO": "-" }, "geometry": { "type": "Point", "coordinates": [ -50.925741, -17.795283 ] } },
{ "type": "Feature", "properties": { "Data de\nAbertura": "2025-05-28", "Horário\nde Abertura": "-", "Assunto": "Extravasamento de Esgoto", "Estrutura": "PV", "Endereço": " Rua Coronel Vaiano, Quadra 46, Lote 25", "Bairro": "Residencial Canaã", "Tema": "ESGOTO", "Prazo de \nExecução": "1 dia", "Vencimento \ndo Prazo": "2025/05/29", "Situação": "Resolvido", "n° Protocolo": "2025042046730", "Solicitante": "Ouvidoria AMAE", "Motivo": "Rota / Demanda Fisc.", "gerou PO?": "NÃO", "n° do PO": "-" }, "geometry": { "type": "Point", "coordinates": [ -50.942852, -17.782396 ] } },
{ "type": "Feature", "properties": { "Data de\nAbertura": "2025-05-28", "Horário\nde Abertura": "-", "Assunto": "Extravasamento de Esgoto", "Estrutura": "REDE", "Endereço": "Av. Eurico Veloso do Carmo, n°1190", "Bairro": "Setor Central", "Tema": "ESGOTO", "Prazo de \nExecução": "1 dia", "Vencimento \ndo Prazo": "2025/05/29", "Situação": "Resolvido", "n° Protocolo": "2025042059530", "Solicitante": "Ouvidoria AMAE", "Motivo": "Rota / Demanda Fisc.", "gerou PO?": "NÃO", "n° do PO": "-" }, "geometry": { "type": "Point", "coordinates": [ -50.926035, -17.796799 ] } },
{ "type": "Feature", "properties": { "Data de\nAbertura": "2025-05-29", "Horário\nde Abertura": "-", "Assunto": "Extravasamento de Esgoto", "Estrutura": "PV", "Endereço": "Av. Campestre, Quadra 12, n°08", "Bairro": "Solar Campestre", "Tema": "ESGOTO", "Prazo de \nExecução": "1 dia", "Vencimento \ndo Prazo": "2025/05/30", "Situação": "Resolvido", "n° Protocolo": "2025042429494", "Solicitante": "Ouvidoria AMAE", "Motivo": "Rota / Demanda Fisc.", "gerou PO?": "NÃO", "n° do PO": "-" }, "geometry": { "type": "Point", "coordinates": [ -50.940955, -17.808113 ] } },
{ "type": "Feature", "properties": { "Data de\nAbertura": "2025-05-30", "Horário\nde Abertura": "-", "Assunto": "Extravasamento de Esgoto", "Estrutura": "PV", "Endereço": "Rua Orozimbo Velozo de Godoy, n°189", "Bairro": "Jardim América", "Tema": "ESGOTO", "Prazo de \nExecução": "1 dia", "Vencimento \ndo Prazo": "2025/05/31", "Situação": "Resolvido", "n° Protocolo": "2025043065828", "Solicitante": "Ouvidoria AMAE", "Motivo": "Rota / Demanda Fisc.", "gerou PO?": "NÃO", "n° do PO": "-" }, "geometry": { "type": "Point", "coordinates": [ -50.92841, -17.788441 ] } },
{ "type": "Feature", "properties": { "Data de\nAbertura": "2025-05-30", "Horário\nde Abertura": "-", "Assunto": "Extravasamento de Esgoto", "Estrutura": "PV", "Endereço": "Rua Vinte, esquina com Rua 74, n°326", "Bairro": "Popular", "Tema": "ESGOTO", "Prazo de \nExecução": "1 dia", "Vencimento \ndo Prazo": "2025/05/31", "Situação": "Resolvido", "n° Protocolo": "2025043066867\n2025043071984", "Solicitante": "Ouvidoria AMAE", "Motivo": "Rota / Demanda Fisc.", "gerou PO?": "NÃO", "n° do PO": "-" }, "geometry": { "type": "Point", "coordinates": [ -50.915552, -17.777958 ] } },
{ "type": "Feature", "properties": { "Data de\nAbertura": "2025-06-02", "Horário\nde Abertura": "-", "Assunto": "Extravasamento de Esgoto", "Estrutura": "PV", "Endereço": "Rua 13, Quadra 05, Lote 04", "Bairro": "Promissão", "Tema": "ESGOTO", "Prazo de \nExecução": "1 dia", "Vencimento \ndo Prazo": "2025/06/03", "Situação": "Resolvido", "n° Protocolo": "2025043701511", "Solicitante": "Ouvidoria AMAE", "Motivo": "Rota / Demanda Fisc.", "gerou PO?": "NÃO", "n° do PO": "-" }, "geometry": { "type": "Point", "coordinates": [ -50.925881, -17.82124 ] } },
{ "type": "Feature", "properties": { "Data de\nAbertura": "2025-06-02", "Horário\nde Abertura": "-", "Assunto": "Extravasamento de Esgoto", "Estrutura": "PV", "Endereço": "Rua Rui Barbosa, n°1075", "Bairro": "Setor Central", "Tema": "ESGOTO", "Prazo de \nExecução": "1 dia", "Vencimento \ndo Prazo": "2025/06/03", "Situação": "Resolvido", "n° Protocolo": "2025043713056", "Solicitante": "Ouvidoria AMAE", "Motivo": "Rota / Demanda Fisc.", "gerou PO?": "NÃO", "n° do PO": "-" }, "geometry": { "type": "Point", "coordinates": [ -50.926515, -17.796267 ] } },
{ "type": "Feature", "properties": { "Data de\nAbertura": "2025-06-02", "Horário\nde Abertura": "-", "Assunto": "Extravasamento de Esgoto", "Estrutura": "PV", "Endereço": "Rua Tupinikins, esquina com Av. João Paulo I, Quadra 33, Lote 08", "Bairro": "Parque das Laranjeiras", "Tema": "ESGOTO", "Prazo de \nExecução": "1 dia", "Vencimento \ndo Prazo": "2025/06/03", "Situação": "Resolvido", "n° Protocolo": "2025043723043", "Solicitante": "Ouvidoria AMAE", "Motivo": "Rota / Demanda Fisc.", "gerou PO?": "NÃO", "n° do PO": "-" }, "geometry": { "type": "Point", "coordinates": [ -50.949323, -17.806099 ] } },
{ "type": "Feature", "properties": { "Data de\nAbertura": "2025-06-02", "Horário\nde Abertura": "-", "Assunto": "Extravasamento de Esgoto", "Estrutura": "PV", "Endereço": "Rua João José Fonseca Quadra 74, Lote 04, n°19", "Bairro": "Setor Morada do Sol", "Tema": "ESGOTO", "Prazo de \nExecução": "1 dia", "Vencimento \ndo Prazo": "2025/06/03", "Situação": "Resolvido", "n° Protocolo": "2025044001653", "Solicitante": "Ouvidoria AMAE", "Motivo": "Rota / Demanda Fisc.", "gerou PO?": "NÃO", "n° do PO": "-" }, "geometry": { "type": "Point", "coordinates": [ -50.939195, -17.793692 ] } },
{ "type": "Feature", "properties": { "Data de\nAbertura": "2025-06-04", "Horário\nde Abertura": "-", "Assunto": "Vazamento de Água", "Estrutura": "ASFALTO", "Endereço": "Rua Guarany, n°126, Quadra 27, Lote 12", "Bairro": "Santo Antônio de Lisboa", "Tema": "ESGOTO", "Prazo de \nExecução": "1 dia", "Vencimento \ndo Prazo": "2025/06/05", "Situação": "Resolvido", "n° Protocolo": "2025044556035", "Solicitante": "Ouvidoria AMAE", "Motivo": "Rota / Demanda Fisc.", "gerou PO?": "NÃO", "n° do PO": "-" }, "geometry": { "type": "Point", "coordinates": [ -50.906039, -17.784426 ] } },
{ "type": "Feature", "properties": { "Data de\nAbertura": "2025-06-05", "Horário\nde Abertura": "-", "Assunto": "Extravasamento de Esgoto", "Estrutura": "PV", "Endereço": "Rua Antônio Sabino, esquina com Rua do Ancião, Quadra 21, Lote 07", "Bairro": "Setor Pauzanes", "Tema": "ESGOTO", "Prazo de \nExecução": "1 dia", "Vencimento \ndo Prazo": "2025/06/06", "Situação": "Resolvido", "n° Protocolo": "2025045362196", "Solicitante": "Ouvidoria AMAE", "Motivo": "Rota / Demanda Fisc.", "gerou PO?": "NÃO", "n° do PO": "-" }, "geometry": { "type": "Point", "coordinates": [ -50.924848, -17.777387 ] } },
{ "type": "Feature", "properties": { "Data de\nAbertura": "2025-06-09", "Horário\nde Abertura": "-", "Assunto": "Extravasamento de Esgoto", "Estrutura": "PV", "Endereço": "Rua Rui Barbosa, n°732", "Bairro": "Setor Central", "Tema": "ESGOTO", "Prazo de \nExecução": "1 dia", "Vencimento \ndo Prazo": "2025/06/10", "Situação": "Resolvido", "n° Protocolo": "2025046253218", "Solicitante": "Ouvidoria AMAE", "Motivo": "Rota / Demanda Fisc.", "gerou PO?": "NÃO", "n° do PO": "-" }, "geometry": { "type": "Point", "coordinates": [ -50.928432, -17.798359 ] } },
{ "type": "Feature", "properties": { "Data de\nAbertura": "2025-05-26", "Horário\nde Abertura": "-", "Assunto": "Extravasamento de Esgoto", "Estrutura": "PV", "Endereço": "Rua Rui Barbosa, n°1779", "Bairro": "Setor Central", "Tema": "ESGOTO", "Prazo de \nExecução": "1 dia", "Vencimento \ndo Prazo": "2025/05/27", "Situação": "Resolvido", "n° Protocolo": "2025041275922", "Solicitante": "Ouvidoria AMAE", "Motivo": "Usuário", "gerou PO?": "NÃO", "n° do PO": "-" }, "geometry": { "type": "Point", "coordinates": [ -50.925741, -17.795283 ] } },
{ "type": "Feature", "properties": { "Data de\nAbertura": "2025-06-10", "Horário\nde Abertura": "-", "Assunto": "Extravasamento de Esgoto", "Estrutura": "PV", "Endereço": "Rua joaquim Fonseca, Quadra 06, Lote 03 e 04", "Bairro": "Odília", "Tema": "ESGOTO", "Prazo de \nExecução": "1 dia", "Vencimento \ndo Prazo": "2025/06/11", "Situação": "Resolvido", "n° Protocolo": "2025046684693", "Solicitante": "Ouvidoria AMAE", "Motivo": "Rota / Demanda Fisc.", "gerou PO?": "NÃO", "n° do PO": "-" }, "geometry": { "type": "Point", "coordinates": [ -50.940817, -17.798951 ] } },
{ "type": "Feature", "properties": { "Data de\nAbertura": "2025-06-10", "Horário\nde Abertura": "-", "Assunto": "Extravasamento de Esgoto", "Estrutura": "TIL", "Endereço": "Rua Ana Martins de Barros, Quadra 85, Lote 15", "Bairro": "Martins", "Tema": "ESGOTO", "Prazo de \nExecução": "1 dia", "Vencimento \ndo Prazo": "2025/06/11", "Situação": "Resolvido", "n° Protocolo": "2025046864047", "Solicitante": "Ouvidoria AMAE", "Motivo": "Usuário", "gerou PO?": "NÃO", "n° do PO": "-" }, "geometry": { "type": "Point", "coordinates": [ -50.914308, -17.764644 ] } },
{ "type": "Feature", "properties": { "Data de\nAbertura": "2025-06-12", "Horário\nde Abertura": "10:30:00", "Assunto": "Extravasamento de Esgoto", "Estrutura": "PV", "Endereço": "Rua Tupinikins, esquina com Av. João Paulo I, Quadra 33, Lote 08", "Bairro": "Parque das Laranjeiras", "Tema": "ESGOTO", "Prazo de \nExecução": "1 dia", "Vencimento \ndo Prazo": "2025/06/13", "Situação": "Resolvido", "n° Protocolo": "2025047661484", "Solicitante": "Ouvidoria AMAE", "Motivo": "Usuário", "gerou PO?": "NÃO", "n° do PO": "-" }, "geometry": { "type": "Point", "coordinates": [ -50.949323, -17.806099 ] } },
{ "type": "Feature", "properties": { "Data de\nAbertura": "2025-06-13", "Horário\nde Abertura": "09:48:00", "Assunto": "Extravasamento de Esgoto", "Estrutura": "PV", "Endereço": "Rua Tupinambás, esquina com Av. João Paulo I, Quadra 44, Lote 01", "Bairro": "Parque das Laranjeiras", "Tema": "ESGOTO", "Prazo de \nExecução": "1 dia", "Vencimento \ndo Prazo": "2025/06/14", "Situação": "Resolvido", "n° Protocolo": "2025047999140", "Solicitante": "Ouvidoria AMAE", "Motivo": "Usuário", "gerou PO?": "NÃO", "n° do PO": "-" }, "geometry": { "type": "Point", "coordinates": [ -50.949982, -17.805479 ] } },
{ "type": "Feature", "properties": { "Data de\nAbertura": "2025-06-13", "Horário\nde Abertura": "16:12:00", "Assunto": "Extravasamento de Esgoto", "Estrutura": "Rede", "Endereço": "Rua Otoniel da Cunha, Quadra 60, Lote 07-B", "Bairro": "Martins", "Tema": "ESGOTO", "Prazo de \nExecução": "1 dia", "Vencimento \ndo Prazo": "2025/06/14", "Situação": "Resolvido", "n° Protocolo": "2025048183039", "Solicitante": "Ouvidoria AMAE", "Motivo": "Usuário", "gerou PO?": "NÃO", "n° do PO": "-" }, "geometry": { "type": "Point", "coordinates": [ -50.91153, -17.767006 ] } },
{ "type": "Feature", "properties": { "Data de\nAbertura": "2025-06-16", "Horário\nde Abertura": "13:15:00", "Assunto": "Extravasamento de Esgoto", "Estrutura": "PV", "Endereço": "Rua 105, Quadra 04 Lote 10", "Bairro": "Bairro de Lourdes", "Tema": "ESGOTO", "Prazo de \nExecução": "1 dia", "Vencimento \ndo Prazo": "2025/06/17", "Situação": "Resolvido", "n° Protocolo": "2025048736836", "Solicitante": "Ouvidoria AMAE", "Motivo": "Rota / Demanda Fisc.", "gerou PO?": "NÃO", "n° do PO": "-" }, "geometry": { "type": "Point", "coordinates": [ -50.94925, -17.804311 ] } },
{ "type": "Feature", "properties": { "Data de\nAbertura": "2025-06-16", "Horário\nde Abertura": "15:25:00", "Assunto": "Extravasamento de Esgoto", "Estrutura": "PV", "Endereço": "Rua 11, Quadra 05, Lote 23", "Bairro": "Recanto do Bosque", "Tema": "ESGOTO", "Prazo de \nExecução": "1 dia", "Vencimento \ndo Prazo": "2025/06/17", "Situação": "Resolvido", "n° Protocolo": "2025048817240", "Solicitante": "Ouvidoria AMAE", "Motivo": "Rota / Demanda Fisc.", "gerou PO?": "NÃO", "n° do PO": "-" }, "geometry": { "type": "Point", "coordinates": [ -50.931547, -17.814832 ] } },
{ "type": "Feature", "properties": { "Data de\nAbertura": "2025-06-16", "Horário\nde Abertura": "16:40:00", "Assunto": "Extravasamento de Esgoto", "Estrutura": "PV", "Endereço": "Rua Alameda Nestor Fonseca, Quadra 07, Lote 102", "Bairro": "Residencial Interlagos", "Tema": "ESGOTO", "Prazo de \nExecução": "1 dia", "Vencimento \ndo Prazo": "2025/06/17", "Situação": "Resolvido", "n° Protocolo": "2025048858575", "Solicitante": "Ouvidoria AMAE", "Motivo": "Rota / Demanda Fisc.", "gerou PO?": "NÃO", "n° do PO": "-" }, "geometry": { "type": "Point", "coordinates": [ -50.947326, -17.781747 ] } },
{ "type": "Feature", "properties": { "Data de\nAbertura": "2025-06-16", "Horário\nde Abertura": "16:49:00", "Assunto": "Extravasamento de Esgoto", "Estrutura": "PV", "Endereço": "Rua 07, Quadra 15, Lote 02", "Bairro": "Residencial Vila Verde", "Tema": "ESGOTO", "Prazo de \nExecução": "1 dia", "Vencimento \ndo Prazo": "2025/06/17", "Situação": "Resolvido", "n° Protocolo": "2025048862920", "Solicitante": "Ouvidoria AMAE", "Motivo": "Rota / Demanda Fisc.", "gerou PO?": "NÃO", "n° do PO": "-" }, "geometry": { "type": "Point", "coordinates": [ -50.949573, -17.787223 ] } },
{ "type": "Feature", "properties": { "Data de\nAbertura": "2025-06-23", "Horário\nde Abertura": "15:40:00", "Assunto": "Extravasamento de Esgoto", "Estrutura": "PV", "Endereço": "Rua 140, Quadra 09, Lote 10", "Bairro": "Lourdes", "Tema": "ESGOTO", "Prazo de \nExecução": "1 dia", "Vencimento \ndo Prazo": "2025/06/24", "Situação": "Resolvido", "n° Protocolo": "2025050502006", "Solicitante": "Ouvidoria AMAE", "Motivo": "Usuário", "gerou PO?": "NÃO", "n° do PO": "-" }, "geometry": { "type": "Point", "coordinates": [ -50.953119, -17.804395 ] } },
{ "type": "Feature", "properties": { "Data de\nAbertura": "2025-06-24", "Horário\nde Abertura": "09:30:00", "Assunto": "Extravasamento de Esgoto", "Estrutura": "PV", "Endereço": "Av. Eurico Veloso do Carmo, n°1600", "Bairro": "Central", "Tema": "ESGOTO", "Prazo de \nExecução": "1 dia", "Vencimento \ndo Prazo": "2025/06/25", "Situação": "Resolvido", "n° Protocolo": "2025050702820", "Solicitante": "Ouvidoria AMAE", "Motivo": "Rota / Demanda Fisc.", "gerou PO?": "NÃO", "n° do PO": "-" }, "geometry": { "type": "Point", "coordinates": [ -50.929155, -17.801175 ] } },
{ "type": "Feature", "properties": { "Data de\nAbertura": "2025-06-27", "Horário\nde Abertura": "10:25:00", "Assunto": "Extravasamento de Esgoto", "Estrutura": "PV", "Endereço": "Rua Faizão, Quadra 14, Lote 37", "Bairro": "Céu Azul", "Tema": "ESGOTO", "Prazo de \nExecução": "1 dia", "Vencimento \ndo Prazo": "2025/06/28", "Situação": "Resolvido", "n° Protocolo": "2025051978586", "Solicitante": "Ouvidoria AMAE", "Motivo": "Rota / Demanda Fisc.", "gerou PO?": "NÃO", "n° do PO": "-" }, "geometry": { "type": "Point", "coordinates": [ -50.909338, -17.753505 ] } },
{ "type": "Feature", "properties": { "Data de\nAbertura": "2025-06-27", "Horário\nde Abertura": "10:33:00", "Assunto": "Extravasamento de Esgoto", "Estrutura": "PV", "Endereço": "Rua do cisne, Quadra 15, Lote 34", "Bairro": "Céu Azul", "Tema": "ESGOTO", "Prazo de \nExecução": "1 dia", "Vencimento \ndo Prazo": "2025/06/28", "Situação": "Resolvido", "n° Protocolo": "2025051983210", "Solicitante": "Ouvidoria AMAE", "Motivo": "Rota / Demanda Fisc.", "gerou PO?": "NÃO", "n° do PO": "-" }, "geometry": { "type": "Point", "coordinates": [ -50.909403, -17.753984 ] } },
{ "type": "Feature", "properties": { "Data de\nAbertura": "2025-06-27", "Horário\nde Abertura": "14:25:00", "Assunto": "Extravasamento de Esgoto", "Estrutura": "PV", "Endereço": "Rua Piauí, Quadra 26, Lote 12", "Bairro": "Primavera", "Tema": "ESGOTO", "Prazo de \nExecução": "1 dia", "Vencimento \ndo Prazo": "2025/06/28", "Situação": "Em Estudo", "n° Protocolo": "2025052086492", "Solicitante": "Ouvidoria AMAE", "Motivo": "Rota / Demanda Fisc.", "gerou PO?": "NÃO", "n° do PO": "-" }, "geometry": { "type": "Point", "coordinates": [ -50.9207, -17.764655 ] } },
{ "type": "Feature", "properties": { "Data de\nAbertura": "2025-07-02", "Horário\nde Abertura": "08:02:00", "Assunto": "Extravasamento de Esgoto", "Estrutura": "TIL", "Endereço": "Rua Wolney Martins, Quadra 01, Lote 04", "Bairro": "Dona Gercina", "Tema": "ESGOTO", "Prazo de \nExecução": "1 dia", "Vencimento \ndo Prazo": "2025/07/03", "Situação": "Resolvido", "n° Protocolo": "2025053429946", "Solicitante": "Ouvidoria AMAE", "Motivo": "Usuário / CARLOS", "gerou PO?": "NÃO", "n° do PO": "-" }, "geometry": { "type": "Point", "coordinates": [ -50.910156, -17.77669 ] } },
{ "type": "Feature", "properties": { "Data de\nAbertura": "2025-07-08", "Horário\nde Abertura": "16:30:00", "Assunto": "Manutenção", "Estrutura": "PASSEIO", "Endereço": "Rua Ilídio Leão, Quadra 86, Lote 12", "Bairro": "Setor Morada do Sol", "Tema": "ESGOTO", "Prazo de \nExecução": "5 dias", "Vencimento \ndo Prazo": "2025/07/14", "Situação": "Resolvido", "n° Protocolo": "2025055938570 \n2025055947294", "Solicitante": "Ouvidoria AMAE", "Motivo": "Usuário / CARLOS", "gerou PO?": "NÃO", "n° do PO": "-" }, "geometry": { "type": "Point", "coordinates": [ -50.945908, -17.79145 ] } },
{ "type": "Feature", "properties": { "Data de\nAbertura": "2025-07-10", "Horário\nde Abertura": "08:45:00", "Assunto": "Extravasamento de Esgoto", "Estrutura": "PV", "Endereço": " Rua do Balsamo, Quadra 58, Lote 1368 ", "Bairro": "Gameleira", "Tema": "ESGOTO", "Prazo de \nExecução": "1 dia", "Vencimento \ndo Prazo": "2025/07/11", "Situação": "Resolvido", "n° Protocolo": "2025056660614", "Solicitante": "Ouvidoria AMAE", "Motivo": "Rota / Demanda Fisc.", "gerou PO?": "NÃO", "n° do PO": "-" }, "geometry": { "type": "Point", "coordinates": [ -50.911995, -17.80058 ] } },
{ "type": "Feature", "properties": { "Data de\nAbertura": "2025-07-14", "Horário\nde Abertura": "10:00:00", "Assunto": "Extravasamento de Esgoto", "Estrutura": "PV", "Endereço": "Rua 18, Quadra 18, Lote 17", "Bairro": "Setor Morada do Sol", "Tema": "ESGOTO", "Prazo de \nExecução": "1 dia", "Vencimento \ndo Prazo": "2025/07/15", "Situação": "Resolvido", "n° Protocolo": "2025057817169", "Solicitante": "Ouvidoria AMAE", "Motivo": "Rota / Demanda Fisc.", "gerou PO?": "NÃO", "n° do PO": "-" }, "geometry": { "type": "Point", "coordinates": [ -50.952483, -17.796627 ] } },
{ "type": "Feature", "properties": { "Data de\nAbertura": "2025-07-15", "Horário\nde Abertura": "12:55:00", "Assunto": "Extravasamento de Esgoto", "Estrutura": "PV", "Endereço": "Rua Vitória, esquina com Rua Evangelho, Quadra 164, Lote 09", "Bairro": "Setor Pauzanes", "Tema": "ESGOTO", "Prazo de \nExecução": "1 dia", "Vencimento \ndo Prazo": "2025/07/16", "Situação": "Resolvido", "n° Protocolo": "2025058384380", "Solicitante": "Ouvidoria AMAE", "Motivo": "Usuário / José Rubens", "gerou PO?": "NÃO", "n° do PO": "-" }, "geometry": { "type": "Point", "coordinates": [ -50.916429, -17.764779 ] } },
{ "type": "Feature", "properties": { "Data de\nAbertura": "2025-07-15", "Horário\nde Abertura": "15:58:00", "Assunto": "Extravasamento de Esgoto", "Estrutura": "PV", "Endereço": "Rua do Pinheiro esquina com Rua do Buriti, Quadra 25, Lote 381", "Bairro": "Residencial Veneza", "Tema": "ESGOTO", "Prazo de \nExecução": "1 dia", "Vencimento \ndo Prazo": "2025/07/16", "Situação": "Resolvido", "n° Protocolo": "2025058489467", "Solicitante": "Ouvidoria AMAE", "Motivo": "Usuário / LUCAS", "gerou PO?": "NÃO", "n° do PO": "-" }, "geometry": { "type": "Point", "coordinates": [ -50.908464, -17.768824 ] } },
{ "type": "Feature", "properties": { "Data de\nAbertura": "2025-07-16", "Horário\nde Abertura": "10:20:00", "Assunto": "Extravasamento de Esgoto", "Estrutura": "PV", "Endereço": "Rua Modesto Araújo, Quadra 103, Lote 15", "Bairro": "Martins", "Tema": "ESGOTO", "Prazo de \nExecução": "1 dia", "Vencimento \ndo Prazo": "2025/07/17", "Situação": "Resolvido", "n° Protocolo": "2025058716285", "Solicitante": "Ouvidoria AMAE", "Motivo": "Rota / Demanda Fisc.", "gerou PO?": "NÃO", "n° do PO": "-" }, "geometry": { "type": "Point", "coordinates": [ -50.952494, -17.796667 ] } },
{ "type": "Feature", "properties": { "Data de\nAbertura": "2025-07-16", "Horário\nde Abertura": "10:43:00", "Assunto": "Extravasamento de Esgoto", "Estrutura": "PV", "Endereço": "Rua Faizão, Quadra 14, Lote 37", "Bairro": "Céu Azul", "Tema": "ESGOTO", "Prazo de \nExecução": "1 dia", "Vencimento \ndo Prazo": "2025/07/17", "Situação": "Resolvido", "n° Protocolo": "20250587230369", "Solicitante": "Ouvidoria AMAE", "Motivo": "Rota / Demanda Fisc.", "gerou PO?": "NÃO", "n° do PO": "-" }, "geometry": { "type": "Point", "coordinates": [ -50.909338, -17.753505 ] } },
{ "type": "Feature", "properties": { "Data de\nAbertura": "2025-07-16", "Horário\nde Abertura": "11:00:00", "Assunto": "Extravasamento de Esgoto", "Estrutura": "PV", "Endereço": "Rua do Cisne, Quadra 15, Lote 34", "Bairro": "Céu Azul", "Tema": "ESGOTO", "Prazo de \nExecução": "1 dia", "Vencimento \ndo Prazo": "2025/07/17", "Situação": "Resolvido", "n° Protocolo": "2025058741239", "Solicitante": "Ouvidoria AMAE", "Motivo": "Rota / Demanda Fisc.", "gerou PO?": "NÃO", "n° do PO": "-" }, "geometry": { "type": "Point", "coordinates": [ -50.909403, -17.753984 ] } },
{ "type": "Feature", "properties": { "Data de\nAbertura": "2025-07-16", "Horário\nde Abertura": "13:09:00", "Assunto": "Extravasamento de Esgoto", "Estrutura": "PV", "Endereço": "Rua Joaquim Fonseca, Quadra 06, Lote 03 e 04", "Bairro": "Odília", "Tema": "ESGOTO", "Prazo de \nExecução": "1 dia", "Vencimento \ndo Prazo": "2025/07/17", "Situação": "Resolvido", "n° Protocolo": "2025058814260", "Solicitante": "Ouvidoria AMAE", "Motivo": "Rota / Demanda Fisc.", "gerou PO?": "NÃO", "n° do PO": "-" }, "geometry": { "type": "Point", "coordinates": [ -50.940817, -17.798951 ] } },
{ "type": "Feature", "properties": { "Data de\nAbertura": "2025-07-16", "Horário\nde Abertura": "17:10:00", "Assunto": "Extravasamento de Esgoto", "Estrutura": "PV", "Endereço": "Rua Al. Flores do Campo, Quadra 42, Lote 21", "Bairro": "Nilson Veloso I", "Tema": "ESGOTO", "Prazo de \nExecução": "1 dia", "Vencimento \ndo Prazo": "2025/07/17", "Situação": "Resolvido", "n° Protocolo": "2025058937826", "Solicitante": "Ouvidoria AMAE", "Motivo": "Rota / Demanda Fisc.", "gerou PO?": "NÃO", "n° do PO": "-" }, "geometry": { "type": "Point", "coordinates": [ -50.895476, -17.74978 ] } },
{ "type": "Feature", "properties": { "Data de\nAbertura": "2025-07-22", "Horário\nde Abertura": "14:10:00", "Assunto": "Extravasamento de Esgoto", "Estrutura": "PV", "Endereço": "Av. Paulo Roberto Cunha, Quadra 01, Lote 12", "Bairro": "Residencial Santa Clara", "Tema": "ESGOTO", "Prazo de \nExecução": "1 dia", "Vencimento \ndo Prazo": "2025/07/23", "Situação": "Em prazo", "n° Protocolo": "2025060639810", "Solicitante": "Ouvidoria AMAE", "Motivo": "Rota / Demanda Fisc.", "gerou PO?": "-", "n° do PO": "-" }, "geometry": { "type": "Point", "coordinates": [ -50.868281, -17.785101 ] } },
{ "type": "Feature", "properties": { "Data de\nAbertura": "2025-07-22", "Horário\nde Abertura": "16:10:00", "Assunto": "Extravasamento de Esgoto", "Estrutura": "PV", "Endereço": "Rua José Crespo, Quadra 44, Lote 17", "Bairro": "Residencial Recanto das Emas", "Tema": "ESGOTO", "Prazo de \nExecução": "1 dia", "Vencimento \ndo Prazo": "2025/07/23", "Situação": "Em prazo", "n° Protocolo": "2025060700579", "Solicitante": "Ouvidoria AMAE", "Motivo": "Rota / Demanda Fisc.", "gerou PO?": "-", "n° do PO": "-" }, "geometry": { "type": "Point", "coordinates": [ -50.866716, -17.795539 ] } },
{ "type": "Feature", "properties": { "Data de\nAbertura": "2025-07-23", "Horário\nde Abertura": "10:12:00", "Assunto": "Extravasamento de Esgoto", "Estrutura": "PV", "Endereço": "Av. Melania Carvalho Leão, Quadra 02, Lote 01 (área institucional)", "Bairro": "Nilson Veloso II", "Tema": "ESGOTO", "Prazo de \nExecução": "1 dia", "Vencimento \ndo Prazo": "2025/07/24", "Situação": "Em prazo", "n° Protocolo": "2025060910557", "Solicitante": "Ouvidoria AMAE", "Motivo": "Rota / Demanda Fisc.", "gerou PO?": "-", "n° do PO": "-" }, "geometry": { "type": "Point", "coordinates": [ -50.900977, -17.759001 ] } },
{ "type": "Feature", "properties": { "Data de\nAbertura": "2025-07-23", "Horário\nde Abertura": "10:48:00", "Assunto": "Extravasamento de Esgoto", "Estrutura": "PV", "Endereço": "Rua Pascoal Moreira, Quadra F, Lote 04", "Bairro": "Parque Bandeirantes", "Tema": "ESGOTO", "Prazo de \nExecução": "1 dia", "Vencimento \ndo Prazo": "2025/07/24", "Situação": "Resolvido", "n° Protocolo": "2025060926640", "Solicitante": "Ouvidoria AMAE", "Motivo": "Rota / Demanda Fisc.", "gerou PO?": "NÃO", "n° do PO": "-" }, "geometry": { "type": "Point", "coordinates": [ -50.912054, -17.791878 ] } },
{ "type": "Feature", "properties": { "Data de\nAbertura": "2025-07-25", "Horário\nde Abertura": "15:00:00", "Assunto": "Extravasamento de Esgoto", "Estrutura": "PV", "Endereço": " Rua Ataliba Ribeiro com Rua Joaquim M das Neves, nº 729-C", "Bairro": "Jardim das Neves", "Tema": "ESGOTO", "Prazo de \nExecução": "1 dia", "Vencimento \ndo Prazo": "2025/07/26", "Situação": "Resolvido", "n° Protocolo": "2025061748540", "Solicitante": "Fiscalização AMAE", "Motivo": "Rota / Demanda Fisc.", "gerou PO?": "NÃO", "n° do PO": "-" }, "geometry": { "type": "Point", "coordinates": [ -50.934887, -17.792995 ] } },
{ "type": "Feature", "properties": { "Data de\nAbertura": "2025-07-28", "Horário\nde Abertura": "13:15:00", "Assunto": "Extravasamento de Esgoto", "Estrutura": "PV", "Endereço": "Rua Lupércio Jaime Martins (Rua Marginal), n°613", "Bairro": "Parque Solar do Agreste", "Tema": "ESGOTO", "Prazo de \nExecução": "1 dia", "Vencimento \ndo Prazo": "2025/07/29", "Situação": "Resolvido", "n° Protocolo": "2025062253723", "Solicitante": "Ouvidoria AMAE", "Motivo": "Usuário / Wdson", "gerou PO?": "NÃO", "n° do PO": "-" }, "geometry": { "type": "Point", "coordinates": [ -50.931629, -17.814164 ] } },
{ "type": "Feature", "properties": { "Data de\nAbertura": "2025-07-29", "Horário\nde Abertura": "11:00:00", "Assunto": "Extravasamento de Esgoto", "Estrutura": "PV", "Endereço": "Av. Adão Mota, esquina com Rua Jacarandá, Quadra 13, Lote 236", "Bairro": "Residencial Gameleira", "Tema": "ESGOTO", "Prazo de \nExecução": "1 dia", "Vencimento \ndo Prazo": "2025/07/30", "Situação": "Resolvido", "n° Protocolo": "2025062612979", "Solicitante": "Ouvidoria AMAE", "Motivo": "Rota / Demanda Fisc.", "gerou PO?": "NÃO", "n° do PO": "-" }, "geometry": { "type": "Point", "coordinates": [ -50.913427, -17.808 ] } },
{ "type": "Feature", "properties": { "Data de\nAbertura": "2025-07-30", "Horário\nde Abertura": "12:07:00", "Assunto": "Extravasamento de Esgoto", "Estrutura": "PV", "Endereço": "Rua 07, Quadra 15, Lote 02", "Bairro": "Residencial Vila Verde", "Tema": "ESGOTO", "Prazo de \nExecução": "1 dia", "Vencimento \ndo Prazo": "2025/07/31", "Situação": "Resolvido", "n° Protocolo": "2025063067028", "Solicitante": "Lucas / Fiscal AMAE", "Motivo": "Rota / Demanda Fisc.", "gerou PO?": "NÃO", "n° do PO": "-" }, "geometry": { "type": "Point", "coordinates": [ -50.949573, -17.787223 ] } },
{ "type": "Feature", "properties": { "Data de\nAbertura": "2025-07-30", "Horário\nde Abertura": "14:15:00", "Assunto": "Extravasamento de Esgoto", "Estrutura": "PV", "Endereço": "Rua Juscelino Kubitschek, Quadra 16, Lote 01", "Bairro": "Santo Agostinho", "Tema": "ESGOTO", "Prazo de \nExecução": "1 dia", "Vencimento \ndo Prazo": "2025/07/31", "Situação": "Resolvido", "n° Protocolo": "2025063146424\n2025063150570", "Solicitante": "Ouvidoria AMAE", "Motivo": "Usuário / Juliete", "gerou PO?": "NÃO", "n° do PO": "-" }, "geometry": { "type": "Point", "coordinates": [ -50.907673, -17.782516 ] } },
{ "type": "Feature", "properties": { "Data de\nAbertura": "2025-08-01", "Horário\nde Abertura": "08:36:00", "Assunto": "Extravasamento de Esgoto", "Estrutura": "PV", "Endereço": "Rua dos Carajás, Quadra 09, Lote 1", "Bairro": "Parque das Laranjeiras", "Tema": "ESGOTO", "Prazo de \nExecução": "1 dia", "Vencimento \ndo Prazo": "2025/08/02", "Situação": "Resolvido", "n° Protocolo": "2025063742876", "Solicitante": "Ouvidoria AMAE", "Motivo": "Usuário / Rauander", "gerou PO?": "NÃO", "n° do PO": "-" }, "geometry": { "type": "Point", "coordinates": [ -50.954079, -17.806423 ] } },
{ "type": "Feature", "properties": { "Data de\nAbertura": "2025-08-01", "Horário\nde Abertura": "08:42:00", "Assunto": "Extravasamento de Esgoto", "Estrutura": "PV", "Endereço": "Rua 134, n°98, Quadra 43, Lote 01", "Bairro": "Jardim Presidente", "Tema": "ESGOTO", "Prazo de \nExecução": "1 dia", "Vencimento \ndo Prazo": "2025/08/02", "Situação": "Resolvido", "n° Protocolo": "2025063744410", "Solicitante": "Ouvidoria AMAE", "Motivo": "Usuário / Rauander", "gerou PO?": "NÃO", "n° do PO": "-" }, "geometry": { "type": "Point", "coordinates": [ -50.943371, -17.806006 ] } },
{ "type": "Feature", "properties": { "Data de\nAbertura": "2025-08-06", "Horário\nde Abertura": "17:32:00", "Assunto": "Extravasamento de Esgoto", "Estrutura": "PV", "Endereço": "Rua 2, esquina com Rua 7, chácara 1, casa 1", "Bairro": "Serra Dourada", "Tema": "ESGOTO", "Prazo de \nExecução": "1 dia", "Vencimento \ndo Prazo": "2025/08/07", "Situação": "Resolvido", "n° Protocolo": "2025065474763", "Solicitante": "Ouvidoria AMAE", "Motivo": "Usuário / Rauander", "gerou PO?": "NÃO", "n° do PO": "-" }, "geometry": { "type": "Point", "coordinates": [ -50.921072, -17.82533 ] } },
{ "type": "Feature", "properties": { "Data de\nAbertura": "2025-08-08", "Horário\nde Abertura": "13:30:00", "Assunto": "Extravasamento de Esgoto", "Estrutura": "PV", "Endereço": "Av. Henrique Matias Henkes (Rua 25),\n esquina com Rua 09, Quadra 04, Lote  12", "Bairro": "Parque dos Buritis I", "Tema": "ESGOTO", "Prazo de \nExecução": "1 dia", "Vencimento \ndo Prazo": "2025/08/09", "Situação": "Resolvido", "n° Protocolo": "2025066146751", "Solicitante": "Ouvidoria AMAE", "Motivo": "Usuário / Rauander", "gerou PO?": "NÃO", "n° do PO": "-" }, "geometry": { "type": "Point", "coordinates": [ -50.939024, -17.811216 ] } },
{ "type": "Feature", "properties": { "Data de\nAbertura": "2025-08-08", "Horário\nde Abertura": "13:33:00", "Assunto": "Extravasamento de Esgoto", "Estrutura": "PV", "Endereço": "Rua 01, Quadra  07, Lote  188", "Bairro": "Parque Solar do Agreste", "Tema": "ESGOTO", "Prazo de \nExecução": "1 dia", "Vencimento \ndo Prazo": "2025/08/09", "Situação": "Resolvido", "n° Protocolo": "2025066147715", "Solicitante": "Ouvidoria AMAE", "Motivo": "Usuário / Rauander", "gerou PO?": "NÃO", "n° do PO": "-" }, "geometry": { "type": "Point", "coordinates": [ -50.934883, -17.810433 ] } },
{ "type": "Feature", "properties": { "Data de\nAbertura": "2025-08-14", "Horário\nde Abertura": "13:34:00", "Assunto": "Extravasamento de Esgoto", "Estrutura": "PV", "Endereço": "Av, Henrique Matias Henkes, esquina com Rua Dois, n°613", "Bairro": "Parque dos Buritis II", "Tema": "ESGOTO", "Prazo de \nExecução": "1 dia", "Vencimento \ndo Prazo": "2025/08/15", "Situação": "Resolvido", "n° Protocolo": "2025067876273", "Solicitante": "Ouvidoria AMAE", "Motivo": "Usuário / Rauander", "gerou PO?": "NÃO", "n° do PO": "-" }, "geometry": { "type": "Point", "coordinates": [ -50.911271, -17.765043 ] } },
{ "type": "Feature", "properties": { "Data de\nAbertura": "2025-08-15", "Horário\nde Abertura": "08:05:00", "Assunto": "Extravasamento de Esgoto", "Estrutura": "PV", "Endereço": "Rua Brasil, Quadra 50, Lote 1165", "Bairro": "Residencial Gameleira", "Tema": "ESGOTO", "Prazo de \nExecução": "1 dia", "Vencimento \ndo Prazo": "2025/08/16", "Situação": "Resolvido", "n° Protocolo": "2025068064906", "Solicitante": "Ouvidoria AMAE", "Motivo": "Rota / Demanda Fisc.", "gerou PO?": "NÃO", "n° do PO": "-" }, "geometry": { "type": "Point", "coordinates": [ -50.91057, -17.803134 ] } },
{ "type": "Feature", "properties": { "Data de\nAbertura": "2025-08-15", "Horário\nde Abertura": "08:30:00", "Assunto": "Extravasamento de Esgoto", "Estrutura": "PV", "Endereço": "Av. Flamboyant, Quadra 31, Lote 19-A", "Bairro": "Residencial Gameleira", "Tema": "ESGOTO", "Prazo de \nExecução": "1 dia", "Vencimento \ndo Prazo": "2025/08/16", "Situação": "Resolvido", "n° Protocolo": "2025068075592", "Solicitante": "Ouvidoria AMAE", "Motivo": "Rota / Demanda Fisc.", "gerou PO?": "NÃO", "n° do PO": "-" }, "geometry": { "type": "Point", "coordinates": [ -50.913915, -17.810689 ] } },
{ "type": "Feature", "properties": { "Data de\nAbertura": "2025-08-15", "Horário\nde Abertura": "13:17:00", "Assunto": "Extravasamento de Esgoto", "Estrutura": "PV", "Endereço": "Av. Henrique Matias Henkes, esquina com Rua 09, Quadra 03, Lote 21 ", "Bairro": "Parque dos Buritis I", "Tema": "ESGOTO", "Prazo de \nExecução": "1 dia", "Vencimento \ndo Prazo": "2025/08/16", "Situação": "Resolvido", "n° Protocolo": "2025068204678", "Solicitante": "Ouvidoria AMAE", "Motivo": "Usuário / Rauander", "gerou PO?": "NÃO", "n° do PO": "-" }, "geometry": { "type": "Point", "coordinates": [ -50.939024, -17.811216 ] } },
{ "type": "Feature", "properties": { "Data de\nAbertura": "2025-08-15", "Horário\nde Abertura": "13:47:00", "Assunto": "Extravasamento de Esgoto", "Estrutura": "PV", "Endereço": "Rua Alameda das Rosas, Quadra 26, Lote 13", "Bairro": "Residencial Jardim Vitória", "Tema": "ESGOTO", "Prazo de \nExecução": "1 dia", "Vencimento \ndo Prazo": "2025/08/16", "Situação": "Resolvido", "n° Protocolo": "2025068216161", "Solicitante": "Ouvidoria AMAE", "Motivo": "Usuário / Bruno Saleh", "gerou PO?": "NÃO", "n° do PO": "-" }, "geometry": { "type": "Point", "coordinates": [ -50.895931, -17.75508 ] } },
{ "type": "Feature", "properties": { "Data de\nAbertura": "2025-08-15", "Horário\nde Abertura": "16:10:00", "Assunto": "Extravasamento de Esgoto", "Estrutura": "PV", "Endereço": "Rua do Campestre, Quadra 01, Área Verde 02", "Bairro": "Bougainville", "Tema": "ESGOTO", "Prazo de \nExecução": "1 dia", "Vencimento \ndo Prazo": "2025/08/16", "Situação": "Resolvido", "n° Protocolo": "2025068271383", "Solicitante": "Ouvidoria AMAE", "Motivo": "Rota / Demanda Fisc.", "gerou PO?": "NÃO", "n° do PO": "-" }, "geometry": { "type": "Point", "coordinates": [ -50.947096, -17.811351 ] } },
{ "type": "Feature", "properties": { "Data de\nAbertura": "2025-08-18", "Horário\nde Abertura": "11:12:00", "Assunto": "Extravasamento de Esgoto", "Estrutura": "PV", "Endereço": "Rua 09, Quadra 08, Lote 183 ", "Bairro": "Dona Ilza", "Tema": "ESGOTO", "Prazo de \nExecução": "1 dia", "Vencimento \ndo Prazo": "2025/08/19", "Situação": "Resolvido", "n° Protocolo": "2025068626980", "Solicitante": "Ouvidoria AMAE", "Motivo": "Rota / Demanda Fisc.", "gerou PO?": "NÃO", "n° do PO": "-" }, "geometry": { "type": "Point", "coordinates": [ -50.926669, -17.819812 ] } },
{ "type": "Feature", "properties": { "Data de\nAbertura": "2025-08-18", "Horário\nde Abertura": "11:20:00", "Assunto": "Extravasamento de Esgoto", "Estrutura": "PV", "Endereço": "Rua Garibalde Leão, Quadra 12, Lote 04, n°191", "Bairro": "Martins ", "Tema": "ESGOTO", "Prazo de \nExecução": "1 dia", "Vencimento \ndo Prazo": "2025/08/19", "Situação": "Resolvido", "n° Protocolo": "2025068631584", "Solicitante": "Ouvidoria AMAE", "Motivo": "Usuário / Bruno Saleh", "gerou PO?": "NÃO", "n° do PO": "-" }, "geometry": { "type": "Point", "coordinates": [ -50.913861, -17.773188 ] } },
{ "type": "Feature", "properties": { "Data de\nAbertura": "2025-08-18", "Horário\nde Abertura": "13:50:00", "Assunto": "Extravasamento de Esgoto", "Estrutura": "PV", "Endereço": "Rua 02, Quadra 16, nº 38", "Bairro": "Promissão", "Tema": "ESGOTO", "Prazo de \nExecução": "1 dia", "Vencimento \ndo Prazo": "2025/08/19", "Situação": "Resolvido", "n° Protocolo": "2025068701191", "Solicitante": "Ouvidoria AMAE", "Motivo": "Rota / Demanda Fisc.", "gerou PO?": "NÃO", "n° do PO": "-" }, "geometry": { "type": "Point", "coordinates": [ -50.929482, -17.818961 ] } },
{ "type": "Feature", "properties": { "Data de\nAbertura": "2025-08-19", "Horário\nde Abertura": "08:15:00", "Assunto": "Extravasamento de Esgoto", "Estrutura": "PV", "Endereço": "Av. Melania Carvalho Leão, Quadra 02, Lote 01 (Área Institucional)", "Bairro": "Nilson Veloso II", "Tema": "ESGOTO", "Prazo de \nExecução": "1 dia", "Vencimento \ndo Prazo": "2025/08/20", "Situação": "Resolvido", "n° Protocolo": "2025068909051", "Solicitante": "Ouvidoria AMAE", "Motivo": "Usuário / Juliete", "gerou PO?": "NÃO", "n° do PO": "-" }, "geometry": { "type": "Point", "coordinates": [ -50.900977, -17.759001 ] } },
{ "type": "Feature", "properties": { "Data de\nAbertura": "2025-08-19", "Horário\nde Abertura": "17:05:00", "Assunto": "Extravasamento de Esgoto", "Estrutura": "PV", "Endereço": "Rua Elucidaria, Quadra 14, Lote 13", "Bairro": "Anhanguera", "Tema": "ESGOTO", "Prazo de \nExecução": "1 dia", "Vencimento \ndo Prazo": "2025/08/20", "Situação": "Resolvido", "n° Protocolo": "2025069184115", "Solicitante": "Ouvidoria AMAE", "Motivo": "Usuário / José Rubens", "gerou PO?": "NÃO", "n° do PO": "-" }, "geometry": { "type": "Point", "coordinates": [ -50.920059, -17.768258 ] } },
{ "type": "Feature", "properties": { "Data de\nAbertura": "2025-08-20", "Horário\nde Abertura": "08:34:00", "Assunto": "Extravasamento de Esgoto", "Estrutura": "PV", "Endereço": "Rua Ilídio Leão, esquina com Rua Jucá Bailão, Quadra 28, Lote 04", "Bairro": "Morada do Sol Prolongamento", "Tema": "ESGOTO", "Prazo de \nExecução": "1 dia", "Vencimento \ndo Prazo": "2025/08/21", "Situação": "Resolvido", "n° Protocolo": "2025069299125", "Solicitante": "Ouvidoria AMAE", "Motivo": "Rota / Demanda Fisc.", "gerou PO?": "-", "n° do PO": "-" }, "geometry": { "type": "Point", "coordinates": [ -50.945218, -17.79436 ] } },
{ "type": "Feature", "properties": { "Data de\nAbertura": "2025-08-20", "Horário\nde Abertura": "12:07:00", "Assunto": "Extravasamento de Esgoto", "Estrutura": "PV", "Endereço": "Rua RG 21, Quadra 55, Lote 37", "Bairro": "Gameleira", "Tema": "ESGOTO", "Prazo de \nExecução": "1 dia", "Vencimento \ndo Prazo": "2025/08/21", "Situação": "Resolvido", "n° Protocolo": "2025069475977", "Solicitante": "Fiscalização / Lucas", "Motivo": "Usuário / LUCAS", "gerou PO?": "-", "n° do PO": "-" }, "geometry": { "type": "Point", "coordinates": [ -50.91784, -17.814868 ] } },
{ "type": "Feature", "properties": { "Data de\nAbertura": "2025-08-20", "Horário\nde Abertura": "14:59:00", "Assunto": "Limpeza de Asfalto (BRK)", "Estrutura": "N.A", "Endereço": "Avenida 75, n°09, Quadra 50, Lote 03", "Bairro": "Popular", "Tema": "ESGOTO", "Prazo de \nExecução": "1 dia", "Vencimento \ndo Prazo": "2025/08/21", "Situação": "Resolvido", "n° Protocolo": "2025069506201", "Solicitante": "Ouvidoria AMAE", "Motivo": "Rota / Demanda Fisc.", "gerou PO?": "NÃO", "n° do PO": "-" }, "geometry": { "type": "Point", "coordinates": [ -50.919566, -17.778684 ] } },
{ "type": "Feature", "properties": { "Data de\nAbertura": "2025-08-26", "Horário\nde Abertura": "15:20:00", "Assunto": "Extravasamento de Esgoto", "Estrutura": "PV", "Endereço": "Rua Almero de Freitas Prado, n°190, Quadra 30, Lote 02", "Bairro": "Martins", "Tema": "ESGOTO", "Prazo de \nExecução": "1 dia", "Vencimento \ndo Prazo": "2025/08/27", "Situação": "Resolvido", "n° Protocolo": "2025071170410", "Solicitante": "Ouvidoria AMAE", "Motivo": "Rota / Demanda Fisc.", "gerou PO?": "NÃO", "n° do PO": "-" }, "geometry": { "type": "Point", "coordinates": [ -50.910873, -17.769553 ] } },
{ "type": "Feature", "properties": { "Data de\nAbertura": "2025-08-26", "Horário\nde Abertura": "16:10:00", "Assunto": "Manutenção", "Estrutura": "ASFALTO", "Endereço": "Rua 03, Quadra 04, Lote 75, n°67 ", "Bairro": "Residencial Araguaia", "Tema": "ESGOTO", "Prazo de \nExecução": "5 dias", "Vencimento \ndo Prazo": "2025/09/03", "Situação": "Resolvido", "n° Protocolo": " 2025071193193\n202507119990 \nRA23708642025.", "Solicitante": "Ouvidoria AMAE", "Motivo": "Rota / Demanda Fisc.", "gerou PO?": "NÃO", "n° do PO": "-" }, "geometry": { "type": "Point", "coordinates": [ -50.945232, -17.788838 ] } },
{ "type": "Feature", "properties": { "Data de\nAbertura": "2025-08-27", "Horário\nde Abertura": "21:19:00", "Assunto": "Extravasamento de Esgoto", "Estrutura": "PV", "Endereço": "Rua do Jacarandá, Quadra 14, Lote 04", "Bairro": "Gameleira", "Tema": "ESGOTO", "Prazo de \nExecução": "1 dia", "Vencimento \ndo Prazo": "2025/08/29", "Situação": "Resolvido", "n° Protocolo": "2025071638225", "Solicitante": "Diandra - Fiscalização", "Motivo": "Usuário", "gerou PO?": "NÃO", "n° do PO": "-" }, "geometry": { "type": "Point", "coordinates": [ -50.909458, -17.811981 ] } },
{ "type": "Feature", "properties": { "Data de\nAbertura": "2025-09-01", "Horário\nde Abertura": "08:05:00", "Assunto": "Extravasamento de Esgoto", "Estrutura": "PV", "Endereço": "Rua do Pavão, Quadra 33, Lote 32-A", "Bairro": "Liberdade", "Tema": "ESGOTO", "Prazo de \nExecução": "1 dia", "Vencimento \ndo Prazo": "2025/09/02", "Situação": "Resolvido", "n° Protocolo": "2025072607943", "Solicitante": "Fiscalização / Lucas", "Motivo": "Usuário", "gerou PO?": "NÃO", "n° do PO": "-" }, "geometry": { "type": "Point", "coordinates": [ -50.913631, -17.757092 ] } },
{ "type": "Feature", "properties": { "Data de\nAbertura": "2025-09-01", "Horário\nde Abertura": "09:48:00", "Assunto": "Extravasamento de Esgoto", "Estrutura": "PV", "Endereço": "Rua Almero de Freitas Prado, n°190, Quadra 30, Lote 02", "Bairro": "Martins", "Tema": "ESGOTO", "Prazo de \nExecução": "1 dia", "Vencimento \ndo Prazo": "2025/09/02", "Situação": "Resolvido", "n° Protocolo": "2025072679200", "Solicitante": "Ouvidoria AMAE", "Motivo": "Usuário", "gerou PO?": "NÃO", "n° do PO": "-" }, "geometry": { "type": "Point", "coordinates": [ -50.910873, -17.769553 ] } },
{ "type": "Feature", "properties": { "Data de\nAbertura": "2025-09-01", "Horário\nde Abertura": "10:10:00", "Assunto": "Extravasamento de Esgoto", "Estrutura": "PV", "Endereço": "Rua Valeriano Leão, Quadra 28, Lote 13, n°158", "Bairro": "Martins", "Tema": "ESGOTO", "Prazo de \nExecução": "1 dia", "Vencimento \ndo Prazo": "2025/09/02", "Situação": "Resolvido", "n° Protocolo": "2025072701974", "Solicitante": "Ouvidoria AMAE", "Motivo": "Usuário", "gerou PO?": "NÃO", "n° do PO": "-" }, "geometry": { "type": "Point", "coordinates": [ -50.914043, -17.770683 ] } },
{ "type": "Feature", "properties": { "Data de\nAbertura": "2025-09-01", "Horário\nde Abertura": "18:49:00", "Assunto": "Extravasamento de Esgoto", "Estrutura": "PV", "Endereço": "Rua 07, Quadra 01, Lote 03", "Bairro": "Serra Dourada", "Tema": "ESGOTO", "Prazo de \nExecução": "1 dia", "Vencimento \ndo Prazo": "2025/09/03", "Situação": "Resolvido", "n° Protocolo": "2025073038632", "Solicitante": "Fiscalização / Lucas", "Motivo": "Usuário", "gerou PO?": "NÃO", "n° do PO": "-" }, "geometry": { "type": "Point", "coordinates": [ -50.925161, -17.835377 ] } },
{ "type": "Feature", "properties": { "Data de\nAbertura": "2025-09-02", "Horário\nde Abertura": "12:38:00", "Assunto": "Extravasamento de Esgoto", "Estrutura": "PV", "Endereço": "Rua São Paulo, n°510, Quadra 64, Lote 06", "Bairro": "Jardim América", "Tema": "ESGOTO", "Prazo de \nExecução": "1 dia", "Vencimento \ndo Prazo": "2025/09/03", "Situação": "Resolvido", "n° Protocolo": "2025073319534", "Solicitante": "Fiscalização / Diandra", "Motivo": "Usuário", "gerou PO?": "NÃO", "n° do PO": "-" }, "geometry": { "type": "Point", "coordinates": [ -50.913189, -17.782573 ] } },
{ "type": "Feature", "properties": { "Data de\nAbertura": "2025-09-02", "Horário\nde Abertura": "19:22:00", "Assunto": "Extravasamento de Esgoto", "Estrutura": "PV", "Endereço": "Rua Faizao, Quadra 14, Lote 37", "Bairro": "Céu Azul", "Tema": "ESGOTO", "Prazo de \nExecução": "1 dia", "Vencimento \ndo Prazo": "2025/09/03", "Situação": "Resolvido", "n° Protocolo": "2025073538899", "Solicitante": "Fiscalização / Diandra", "Motivo": "Usuário", "gerou PO?": "NÃO", "n° do PO": "-" }, "geometry": { "type": "Point", "coordinates": [ -50.909338, -17.753505 ] } },
{ "type": "Feature", "properties": { "Data de\nAbertura": "2025-09-03", "Horário\nde Abertura": "13:05:00", "Assunto": "Extravasamento de Esgoto", "Estrutura": "PV", "Endereço": "Rua Pastor Carvalho, Quadra 26, Lote 19", "Bairro": "Maranata", "Tema": "ESGOTO", "Prazo de \nExecução": "1 dia", "Vencimento \ndo Prazo": "2025/09/04", "Situação": "Resolvido", "n° Protocolo": "2025073822694", "Solicitante": "Ouvidoria AMAE", "Motivo": "Usuário", "gerou PO?": "NÃO", "n° do PO": "-" }, "geometry": { "type": "Point", "coordinates": [ -50.900529, -17.767219 ] } },
{ "type": "Feature", "properties": { "Data de\nAbertura": "2025-09-04", "Horário\nde Abertura": "13:20:00", "Assunto": "Extravasamento de Esgoto", "Estrutura": "PV", "Endereço": "Rua 01, Quadra 02, Lote 03", "Bairro": "Serra Dourada", "Tema": "ESGOTO", "Prazo de \nExecução": "1 dia", "Vencimento \ndo Prazo": "2025/09/05", "Situação": "Resolvido", "n° Protocolo": "2025074303267", "Solicitante": "Ouvidoria AMAE", "Motivo": "Usuário", "gerou PO?": "NÃO", "n° do PO": "-" }, "geometry": { "type": "Point", "coordinates": [ -50.923798, -17.825334 ] } },
{ "type": "Feature", "properties": { "Data de\nAbertura": "2025-09-04", "Horário\nde Abertura": "13:33:00", "Assunto": "Extravasamento de Esgoto", "Estrutura": "PV", "Endereço": "Rua 02, n°38, Quadra 16", "Bairro": "Promissão", "Tema": "ESGOTO", "Prazo de \nExecução": "1 dia", "Vencimento \ndo Prazo": "2025/09/05", "Situação": "Resolvido", "n° Protocolo": "2025074309567", "Solicitante": "Ouvidoria AMAE", "Motivo": "Rota / Demanda Fisc.", "gerou PO?": "NÃO", "n° do PO": "-" }, "geometry": { "type": "Point", "coordinates": [ -50.929482, -17.818961 ] } },
{ "type": "Feature", "properties": { "Data de\nAbertura": "2025-09-04", "Horário\nde Abertura": "13:36:00", "Assunto": "Extravasamento de Esgoto", "Estrutura": "PV", "Endereço": "Rua 10, Quadra 13, Lote 03", "Bairro": "Dona Gercina", "Tema": "ESGOTO", "Prazo de \nExecução": "1 dia", "Vencimento \ndo Prazo": "2025/09/05", "Situação": "Resolvido", "n° Protocolo": "2025074311367", "Solicitante": "Ouvidoria AMAE", "Motivo": "Usuário", "gerou PO?": "NÃO", "n° do PO": "-" }, "geometry": { "type": "Point", "coordinates": [ -50.905287, -17.775672 ] } },
{ "type": "Feature", "properties": { "Data de\nAbertura": "2025-09-04", "Horário\nde Abertura": "14:28:00", "Assunto": "Extravasamento de Esgoto", "Estrutura": "PV", "Endereço": "Rua Valeriano Leão, Quadra 28, Lote 13, n°158", "Bairro": "Martins", "Tema": "ESGOTO", "Prazo de \nExecução": "1 dia", "Vencimento \ndo Prazo": "2025/09/05", "Situação": "Resolvido", "n° Protocolo": "2025074340278", "Solicitante": "Ouvidoria AMAE", "Motivo": "Usuário", "gerou PO?": "NÃO", "n° do PO": "-" }, "geometry": { "type": "Point", "coordinates": [ -50.914043, -17.770683 ] } },
{ "type": "Feature", "properties": { "Data de\nAbertura": "2025-09-08", "Horário\nde Abertura": "08:45:00", "Assunto": "Extravasamento de Esgoto", "Estrutura": "PV", "Endereço": "Rua 07, esquina com o Corredor Público, Quadra 01, Lote 06, n° 07", "Bairro": "São Joaquim", "Tema": "ESGOTO", "Prazo de \nExecução": "1 dia", "Vencimento \ndo Prazo": "2025/09/09", "Situação": "Resolvido", "n° Protocolo": "2025075429809", "Solicitante": "Ouvidoria AMAE", "Motivo": "Usuário", "gerou PO?": "NÃO", "n° do PO": "-" }, "geometry": { "type": "Point", "coordinates": [ -50.908261, -17.774541 ] } },
{ "type": "Feature", "properties": { "Data de\nAbertura": "2025-09-08", "Horário\nde Abertura": "16:40:00", "Assunto": "Extravasamento de Esgoto", "Estrutura": "PV", "Endereço": "Rua Maria de Lourdes esquina com a Rua Rosalina Lopes, Quadra 04, Lote 84", "Bairro": "Res. Dona Ilza", "Tema": "ESGOTO", "Prazo de \nExecução": "1 dia", "Vencimento \ndo Prazo": "2025/09/09", "Situação": "Resolvido", "n° Protocolo": "2025075735950", "Solicitante": "Ouvidoria AMAE", "Motivo": "Usuário", "gerou PO?": "NÃO", "n° do PO": "-" }, "geometry": { "type": "Point", "coordinates": [ -50.92756, -17.818061 ] } },
{ "type": "Feature", "properties": { "Data de\nAbertura": "2025-09-09", "Horário\nde Abertura": "09:43:00", "Assunto": "Extravasamento de Esgoto", "Estrutura": "PV", "Endereço": "Rua Paraná, n° 777", "Bairro": "Eldorado", "Tema": "ESGOTO", "Prazo de \nExecução": "1 dia", "Vencimento \ndo Prazo": "2025/09/10", "Situação": "Resolvido", "n° Protocolo": "2025075977520", "Solicitante": "Ouvidoria AMAE", "Motivo": "Usuário", "gerou PO?": "NÃO", "n° do PO": "-" }, "geometry": { "type": "Point", "coordinates": [ -50.919568, -17.76947 ] } },
{ "type": "Feature", "properties": { "Data de\nAbertura": "2025-10-10", "Horário\nde Abertura": "09:23:00", "Assunto": "Extravasamento de Esgoto", "Estrutura": "PV", "Endereço": "Avenida Flamboyant, Quadra 01, Lote 18", "Bairro": "Gameleira", "Tema": "ESGOTO", "Prazo de \nExecução": "1 dia", "Vencimento \ndo Prazo": "2025/09/11", "Situação": "Em prazo", "n° Protocolo": "2025076469375", "Solicitante": "Ouvidoria AMAE", "Motivo": "Rota / Demanda Fisc.", "gerou PO?": "-", "n° do PO": "-" }, "geometry": { "type": "Point", "coordinates": [ -50.919497, -17.8051 ] } },
{ "type": "Feature", "properties": { "Data de\nAbertura": "2025-10-11", "Horário\nde Abertura": "10:22:00", "Assunto": "Extravasamento de Esgoto", "Estrutura": "PV", "Endereço": "Rua Jacarandá, Quadra 42, Lote 19", "Bairro": "Nilson Veloso I", "Tema": "ESGOTO", "Prazo de \nExecução": "1 dia", "Vencimento \ndo Prazo": "2025/09/12", "Situação": "Em prazo", "n° Protocolo": "2025076998386", "Solicitante": "Ouvidoria AMAE", "Motivo": "Rota / Demanda Fisc.", "gerou PO?": "NÃO", "n° do PO": "-" }, "geometry": { "type": "Point", "coordinates": [ -50.895933, -17.7494 ] } }
]
}
