{
"type": "FeatureCollection",
"name": "ÁGUA",
"crs": { "type": "name", "properties": { "name": "urn:ogc:def:crs:OGC:1.3:CRS84" } },
"features": [
{ "type": "Feature", "properties": { "Data de\nAbertura": "2025-01-30", "Horário\nde Abertura": "-", "Assunto": "Vazamento de Água", "Estrutura": "CALÇADA", "Endereço": "Rua Serafim L. de Mendonça, Quadra 13, Lote 11", "Bairro": "Jardim das Margaridas", "Tema": "ÁGUA", "Prazo de \nExecução": "1 dia", "Vencimento \ndo Prazo": "2025/02/01", "Situação": "Resolvido", "n° Protocolo": "2025008745249", "Solicitante": "Ouvidoria AMAE", "Motivo": "Rota / Demanda Fisc.", "gerou PO?": "SIM", "n° do PO": "29/2025" }, "geometry": { "type": "Point", "coordinates": [ -50.905831, -17.791558 ] } },
{ "type": "Feature", "properties": { "Data de\nAbertura": "2025-02-06", "Horário\nde Abertura": "-", "Assunto": "Manutenção", "Estrutura": "PASSEIO", "Endereço": "Rua 10, n°385, Quadra 24, Lote 24", "Bairro": "Vila Amália I", "Tema": "ÁGUA", "Prazo de \nExecução": "5 dias", "Vencimento \ndo Prazo": "2025/02/11", "Situação": "Resolvido", "n° Protocolo": "RA3195742025", "Solicitante": "Ouvidoria AMAE", "Motivo": "Usuário", "gerou PO?": "SIM", "n° do PO": "32/2025" }, "geometry": { "type": "Point", "coordinates": [ -50.918041, -17.7993 ] } },
{ "type": "Feature", "properties": { "Data de\nAbertura": "2025-02-07", "Horário\nde Abertura": "-", "Assunto": "Erro de Leitura", "Estrutura": "N.A", "Endereço": "Rua Bahia, n°578, Quadra 51, Lote 07", "Bairro": "Martins", "Tema": "ÁGUA", "Prazo de \nExecução": "1 dia", "Vencimento \ndo Prazo": "2025/02/08", "Situação": "Resolvido", "n° Protocolo": "RA25233752024", "Solicitante": "Ouvidoria AMAE", "Motivo": "Usuário", "gerou PO?": "SIM", "n° do PO": "33/2025" }, "geometry": { "type": "Point", "coordinates": [ -50.914318, -17.76864 ] } },
{ "type": "Feature", "properties": { "Data de\nAbertura": "2025-02-07", "Horário\nde Abertura": "-", "Assunto": "Falta de Água", "Estrutura": "N.A", "Endereço": "Rua 09, n°333, Quadra 005, Lote 11", "Bairro": "Vila Dona Auta", "Tema": "ÁGUA", "Prazo de \nExecução": "1 dia", "Vencimento \ndo Prazo": "2025/02/08", "Situação": "Resolvido", "n° Protocolo": "2025006971578\n2025007508979\n2025007969798\n2025007973124", "Solicitante": "Ouvidoria AMAE", "Motivo": "Usuário", "gerou PO?": "SIM", "n° do PO": "34/2025" }, "geometry": { "type": "Point", "coordinates": [ -50.940904, -17.784048 ] } },
{ "type": "Feature", "properties": { "Data de\nAbertura": "2025-02-11", "Horário\nde Abertura": "-", "Assunto": "Vazamento de Água", "Estrutura": "ASFALTO", "Endereço": "Rua Tocantins, Quadra 14, Lote 13", "Bairro": "Santo Agostinho", "Tema": "ÁGUA", "Prazo de \nExecução": "1 dia", "Vencimento \ndo Prazo": "2025/02/12", "Situação": "Resolvido", "n° Protocolo": "-", "Solicitante": "Ouvidoria AMAE", "Motivo": "Usuário", "gerou PO?": "SIM", "n° do PO": "38/2025" }, "geometry": { "type": "Point", "coordinates": [ -50.909667, -17.781249 ] } },
{ "type": "Feature", "properties": { "Data de\nAbertura": "2025-02-18", "Horário\nde Abertura": "-", "Assunto": "Vazamento de Água", "Estrutura": "CALÇADA", "Endereço": "Rua 06, esquina com Rua 07, Quadra 11, Lote 215", "Bairro": "Parque Solar do Agreste", "Tema": "ÁGUA", "Prazo de \nExecução": "1 dia", "Vencimento \ndo Prazo": "2025/02/19", "Situação": "Resolvido", "n° Protocolo": "2025016623769", "Solicitante": "Ouvidoria AMAE", "Motivo": "Rota / Demanda Fisc.", "gerou PO?": "SIM", "n° do PO": "42/2025" }, "geometry": { "type": "Point", "coordinates": [ -50.931807, -17.812745 ] } },
{ "type": "Feature", "properties": { "Data de\nAbertura": "2025-03-13", "Horário\nde Abertura": "-", "Assunto": "Vazamento de Água", "Estrutura": "ASFALTO", "Endereço": "Rua Copacabana, n°17, Quadra C, Lote 11P", "Bairro": "Vila Borges", "Tema": "ÁGUA", "Prazo de \nExecução": "1 dia", "Vencimento \ndo Prazo": "2025/03/14", "Situação": "Resolvido", "n° Protocolo": "2025020427995", "Solicitante": "Fiscalização AMAE", "Motivo": "Rota / Demanda Fisc.", "gerou PO?": "NÃO", "n° do PO": "-" }, "geometry": { "type": "Point", "coordinates": [ -50.924158, -17.782113 ] } },
{ "type": "Feature", "properties": { "Data de\nAbertura": "2025-03-13", "Horário\nde Abertura": "-", "Assunto": "Manutenção", "Estrutura": "PASSEIO", "Endereço": "Rua Major Oscar Campos, n°326", "Bairro": "Jardim Marconal", "Tema": "ÁGUA", "Prazo de \nExecução": "5 dias", "Vencimento \ndo Prazo": "2025/03/18", "Situação": "Resolvido", "n° Protocolo": "2025020428614", "Solicitante": "Fiscalização AMAE", "Motivo": "Rota / Demanda Fisc.", "gerou PO?": "NÃO", "n° do PO": "-" }, "geometry": { "type": "Point", "coordinates": [ -50.938137, -17.799892 ] } },
{ "type": "Feature", "properties": { "Data de\nAbertura": "2025-03-25", "Horário\nde Abertura": "-", "Assunto": "Vazamento de Água", "Estrutura": "ASFALTO", "Endereço": "Rua 08, Quadra 09, Lote 174", "Bairro": "Parque Solar do Agreste", "Tema": "ÁGUA", "Prazo de \nExecução": "1 dia", "Vencimento \ndo Prazo": "2025/03/26", "Situação": "Resolvido", "n° Protocolo": "2025021445024", "Solicitante": "Ouvidoria AMAE", "Motivo": "Rota / Demanda Fisc.", "gerou PO?": "NÃO", "n° do PO": "-" }, "geometry": { "type": "Point", "coordinates": [ -50.932268, -17.811183 ] } },
{ "type": "Feature", "properties": { "Data de\nAbertura": "2025-03-26", "Horário\nde Abertura": "-", "Assunto": "Vazamento de Água", "Estrutura": "ASFALTO", "Endereço": "Rua Afonso Ferreira, n°400", "Bairro": "Centro", "Tema": "ÁGUA", "Prazo de \nExecução": "1 dia", "Vencimento \ndo Prazo": "2025/03/27", "Situação": "Resolvido", "n° Protocolo": "2025021660480", "Solicitante": "Ouvidoria AMAE", "Motivo": "Rota / Demanda Fisc.", "gerou PO?": "NÃO", "n° do PO": "-" }, "geometry": { "type": "Point", "coordinates": [ -50.930674, -17.792744 ] } },
{ "type": "Feature", "properties": { "Data de\nAbertura": "2025-03-28", "Horário\nde Abertura": "-", "Assunto": "Vazamento de Água", "Estrutura": "ASFALTO", "Endereço": "Rua 01, Quadra 16, Lote 11", "Bairro": "Parque dos Buritis II", "Tema": "ÁGUA", "Prazo de \nExecução": "1 dia", "Vencimento \ndo Prazo": "2025/03/29", "Situação": "Resolvido", "n° Protocolo": "2025022329753", "Solicitante": "Ouvidoria AMAE", "Motivo": "Rota / Demanda Fisc.", "gerou PO?": "NÃO", "n° do PO": "-" }, "geometry": { "type": "Point", "coordinates": [ -50.935241, -17.808592 ] } },
{ "type": "Feature", "properties": { "Data de\nAbertura": "2025-03-28", "Horário\nde Abertura": "-", "Assunto": "Vazamento de Água", "Estrutura": "ASFALTO", "Endereço": "Rua 15-A, Quadra G, Lote 07", "Bairro": "Jardim Goiás", "Tema": "ÁGUA", "Prazo de \nExecução": "1 dia", "Vencimento \ndo Prazo": "2025/03/29", "Situação": "Resolvido", "n° Protocolo": "2025022462364", "Solicitante": "Ouvidoria AMAE", "Motivo": "Rota / Demanda Fisc.", "gerou PO?": "NÃO", "n° do PO": "-" }, "geometry": { "type": "Point", "coordinates": [ -50.921325, -17.785213 ] } },
{ "type": "Feature", "properties": { "Data de\nAbertura": "2025-03-28", "Horário\nde Abertura": "-", "Assunto": "Vazamento de Água", "Estrutura": "ASFALTO", "Endereço": "Rua 131, n°05, Quadra 07, Lote 07", "Bairro": "Jardim Presidente", "Tema": "ÁGUA", "Prazo de \nExecução": "1 dia", "Vencimento \ndo Prazo": "2025/03/29", "Situação": "Resolvido", "n° Protocolo": "2025022465215", "Solicitante": "Ouvidoria AMAE", "Motivo": "Rota / Demanda Fisc.", "gerou PO?": "NÃO", "n° do PO": "-" }, "geometry": { "type": "Point", "coordinates": [ -50.940302, -17.800491 ] } },
{ "type": "Feature", "properties": { "Data de\nAbertura": "2025-04-24", "Horário\nde Abertura": "-", "Assunto": "Vazamento de Água", "Estrutura": "ASFALTO", "Endereço": "Rua Dona Helena, Quadra 11, Lote 01", "Bairro": "Setor Pauzanes", "Tema": "ÁGUA", "Prazo de \nExecução": "1 dia", "Vencimento \ndo Prazo": "2025/04/25", "Situação": "Resolvido", "n° Protocolo": "2025030676033", "Solicitante": "Ouvidoria AMAE", "Motivo": "Usuário", "gerou PO?": "NÃO", "n° do PO": "-" }, "geometry": { "type": "Point", "coordinates": [ -50.924022, -17.778802 ] } },
{ "type": "Feature", "properties": { "Data de\nAbertura": "2025-05-14", "Horário\nde Abertura": "-", "Assunto": "Vazamento de Água", "Estrutura": "ASFALTO", "Endereço": "Rua 134, n°98, Quadra 43, Lote 01", "Bairro": "Jardim Presidente", "Tema": "ÁGUA", "Prazo de \nExecução": "1 dia", "Vencimento \ndo Prazo": "2025/05/15", "Situação": "Resolvido", "n° Protocolo": "2025037358592", "Solicitante": "Ouvidoria AMAE", "Motivo": "Usuário", "gerou PO?": "NÃO", "n° do PO": "-" }, "geometry": { "type": "Point", "coordinates": [ -50.943293, -17.805934 ] } },
{ "type": "Feature", "properties": { "Data de\nAbertura": "2025-05-20", "Horário\nde Abertura": "-", "Assunto": "Vazamento de Água", "Estrutura": "ASFALTO", "Endereço": "Rua 09, nº157, Lote 04, Quadra AB", "Bairro": "Vila Amália I", "Tema": "ÁGUA", "Prazo de \nExecução": "1 dia", "Vencimento \ndo Prazo": "2025/05/21", "Situação": "Resolvido", "n° Protocolo": "2025039372665", "Solicitante": "Ouvidoria AMAE", "Motivo": "Usuário", "gerou PO?": "NÃO", "n° do PO": "-" }, "geometry": { "type": "Point", "coordinates": [ -50.919823, -17.799542 ] } },
{ "type": "Feature", "properties": { "Data de\nAbertura": "2025-05-20", "Horário\nde Abertura": "-", "Assunto": "Vazamento de Água", "Estrutura": "ASFALTO", "Endereço": "Rua Júnior Henrique, esquina com Rua Mauro Duarte , n°199, Quadra 12, Lote 05", "Bairro": "Vila Mariana I", "Tema": "ÁGUA", "Prazo de \nExecução": "1 dia", "Vencimento \ndo Prazo": "2025/05/21", "Situação": "Resolvido", "n° Protocolo": "2025039592762", "Solicitante": "Ouvidoria AMAE", "Motivo": "Usuário", "gerou PO?": "NÃO", "n° do PO": "-" }, "geometry": { "type": "Point", "coordinates": [ -50.925962, -17.812264 ] } },
{ "type": "Feature", "properties": { "Data de\nAbertura": "2025-05-26", "Horário\nde Abertura": "-", "Assunto": "Vazamento de Água", "Estrutura": "ASFALTO", "Endereço": "Rua Ipiranga, Quadra 49, Lote 14, n°87", "Bairro": "Vila Maria", "Tema": "ÁGUA", "Prazo de \nExecução": "1 dia", "Vencimento \ndo Prazo": "2025/05/27", "Situação": "Resolvido", "n° Protocolo": "2025041245947", "Solicitante": "Ouvidoria AMAE", "Motivo": "Usuário", "gerou PO?": "NÃO", "n° do PO": "-" }, "geometry": { "type": "Point", "coordinates": [ -50.909301, -17.784696 ] } },
{ "type": "Feature", "properties": { "Data de\nAbertura": "2025-05-26", "Horário\nde Abertura": "-", "Assunto": "Vazamento de Água", "Estrutura": "ASFALTO", "Endereço": "Rua Gumercindo Ferreira, n°12 ", "Bairro": "Setor Central", "Tema": "ÁGUA", "Prazo de \nExecução": "1 dia", "Vencimento \ndo Prazo": "2025/05/27", "Situação": "Resolvido", "n° Protocolo": "2025041523349", "Solicitante": "Ouvidoria AMAE", "Motivo": "Usuário", "gerou PO?": "NÃO", "n° do PO": "-" }, "geometry": { "type": "Point", "coordinates": [ -50.936688, -17.802384 ] } },
{ "type": "Feature", "properties": { "Data de\nAbertura": "2025-06-10", "Horário\nde Abertura": "-", "Assunto": "Vazamento de Água", "Estrutura": "ASFALTO", "Endereço": "Rua dos Apinajés, Quadra 09, Lote 04 ", "Bairro": "Parque das Laranjeiras Prolongamento", "Tema": "ÁGUA", "Prazo de \nExecução": "1 dia", "Vencimento \ndo Prazo": "2025/06/11", "Situação": "Resolvido", "n° Protocolo": "2025046688141", "Solicitante": "Ouvidoria AMAE", "Motivo": "Usuário", "gerou PO?": "NÃO", "n° do PO": "-" }, "geometry": { "type": "Point", "coordinates": [ -50.955312, -17.806481 ] } },
{ "type": "Feature", "properties": { "Data de\nAbertura": "2025-06-11", "Horário\nde Abertura": "-", "Assunto": "Vazamento de Água", "Estrutura": "CALÇADA", "Endereço": "Rua Darlot Almeida, Quadra 01, Lote 01", "Bairro": "Jardim Eleonora", "Tema": "ÁGUA", "Prazo de \nExecução": "1 dia", "Vencimento \ndo Prazo": "2025/06/12", "Situação": "Resolvido", "n° Protocolo": "2025047173846", "Solicitante": "Ouvidoria AMAE", "Motivo": "Usuário", "gerou PO?": "NÃO", "n° do PO": "-" }, "geometry": { "type": "Point", "coordinates": [ -50.942335, -17.806051 ] } },
{ "type": "Feature", "properties": { "Data de\nAbertura": "2025-06-16", "Horário\nde Abertura": "16:35:00", "Assunto": "Vazamento de Água", "Estrutura": "ASFALTO", "Endereço": "Rua 09, Quadra 02, Lote 26", "Bairro": "Setor Morada do Sol", "Tema": "ÁGUA", "Prazo de \nExecução": "1 dia", "Vencimento \ndo Prazo": "2025/06/17", "Situação": "Resolvido", "n° Protocolo": "2025048856858", "Solicitante": "Ouvidoria AMAE", "Motivo": "Rota / Demanda Fisc.", "gerou PO?": "NÃO", "n° do PO": "-" }, "geometry": { "type": "Point", "coordinates": [ -50.950798, -17.791834 ] } },
{ "type": "Feature", "properties": { "Data de\nAbertura": "2025-06-19", "Horário\nde Abertura": "13:12:00", "Assunto": "Falta de Água", "Estrutura": "Água", "Endereço": "Rua José Elias, Quadra 10, Lote 01-B", "Bairro": "Vila Mariana", "Tema": "ÁGUA", "Prazo de \nExecução": "1 dia", "Vencimento \ndo Prazo": "2025/06/20", "Situação": "Resolvido", "n° Protocolo": "2025049728560\n2025049728705", "Solicitante": "Ouvidoria AMAE", "Motivo": "Usuário", "gerou PO?": "NÃO", "n° do PO": "-" }, "geometry": { "type": "Point", "coordinates": [ -50.924532, -17.811107 ] } },
{ "type": "Feature", "properties": { "Data de\nAbertura": "2025-06-23", "Horário\nde Abertura": "15:50:00", "Assunto": "Vazamento de Água", "Estrutura": "ASFALTO", "Endereço": "Rua Comendador Leão, n°124 - Centro", "Bairro": "Central", "Tema": "ÁGUA", "Prazo de \nExecução": "1 dia", "Vencimento \ndo Prazo": "2025/06/24", "Situação": "Resolvido", "n° Protocolo": "2025050508020", "Solicitante": "Ouvidoria AMAE", "Motivo": "Usuário", "gerou PO?": "NÃO", "n° do PO": "-" }, "geometry": { "type": "Point", "coordinates": [ -50.935394, -17.803439 ] } },
{ "type": "Feature", "properties": { "Data de\nAbertura": "2025-06-23", "Horário\nde Abertura": "15:55:00", "Assunto": "Vazamento de Água", "Estrutura": "ASFALTO", "Endereço": "Rua 140, Quadra 09, Lote 10", "Bairro": "Lourdes", "Tema": "ÁGUA", "Prazo de \nExecução": "1 dia", "Vencimento \ndo Prazo": "2025/06/24", "Situação": "Resolvido", "n° Protocolo": "2025050686484", "Solicitante": "Ouvidoria AMAE", "Motivo": "Usuário", "gerou PO?": "NÃO", "n° do PO": "-" }, "geometry": { "type": "Point", "coordinates": [ -50.953036, -17.804332 ] } },
{ "type": "Feature", "properties": { "Data de\nAbertura": "2025-06-25", "Horário\nde Abertura": "17:10:00", "Assunto": "Vazamento de Água", "Estrutura": "ASFALTO", "Endereço": "Rua Vitória, Quadra 34, Lote 16", "Bairro": "Dom Miguel", "Tema": "ÁGUA", "Prazo de \nExecução": "1 dia", "Vencimento \ndo Prazo": "2025/06/26", "Situação": "Resolvido", "n° Protocolo": "2025051386700", "Solicitante": "Ouvidoria AMAE", "Motivo": "Usuário", "gerou PO?": "NÃO", "n° do PO": null }, "geometry": { "type": "Point", "coordinates": [ -50.920157, -17.755247 ] } },
{ "type": "Feature", "properties": { "Data de\nAbertura": "2025-06-26", "Horário\nde Abertura": "10:25:00", "Assunto": "Vazamento de Água", "Estrutura": "ASFALTO", "Endereço": "Rua Zico Guerra, Quadra 04, Lote 41-A", "Bairro": "Residencial Interlagos", "Tema": "ÁGUA", "Prazo de \nExecução": "1 dia", "Vencimento \ndo Prazo": "2025/06/27", "Situação": "Laudo (SANEAGO): Vazamento não constatado. Possivelmente mina ou água de imóveis", "n° Protocolo": "2025051595822", "Solicitante": "Ouvidoria AMAE", "Motivo": "Usuário", "gerou PO?": "NÃO", "n° do PO": "-" }, "geometry": { "type": "Point", "coordinates": [ -50.946417, -17.784363 ] } },
{ "type": "Feature", "properties": { "Data de\nAbertura": "2025-06-26", "Horário\nde Abertura": "13:25:00", "Assunto": "Vazamento de Água", "Estrutura": "ASFALTO", "Endereço": "Rua 07, Quadra 10, Lote 182", "Bairro": "Parque Solar do Agreste I.", "Tema": "ÁGUA", "Prazo de \nExecução": "1 dia", "Vencimento \ndo Prazo": "2025/06/27", "Situação": "Resolvido", "n° Protocolo": "2025051693832", "Solicitante": "Ouvidoria AMAE", "Motivo": "Usuário", "gerou PO?": "NÃO", "n° do PO": "-" }, "geometry": { "type": "Point", "coordinates": [ -50.932502, -17.812005 ] } },
{ "type": "Feature", "properties": { "Data de\nAbertura": "2025-06-27", "Horário\nde Abertura": "10:05:00", "Assunto": "Vazamento de Água", "Estrutura": "ASFALTO", "Endereço": "R. Renato Cavalcante, esquina com R. Nova Jerusalém, Quadra 17, Lote 01", "Bairro": "Residencial Maranata", "Tema": "ÁGUA", "Prazo de \nExecução": "1 dia", "Vencimento \ndo Prazo": "2025/06/28", "Situação": "Laudo (SANEAGO): Vazamento não constatado.", "n° Protocolo": "2025051968238", "Solicitante": "Ouvidoria AMAE", "Motivo": "Usuário", "gerou PO?": "NÃO", "n° do PO": "-" }, "geometry": { "type": "Point", "coordinates": [ -50.897417, -17.767632 ] } },
{ "type": "Feature", "properties": { "Data de\nAbertura": "2025-07-02", "Horário\nde Abertura": "13:25:00", "Assunto": "Vazamento de Água", "Estrutura": "HIDRÔMETRO", "Endereço": "Rua dos Guaias, Quadra 10, Lote 01 ", "Bairro": "Bairro de Lourdes", "Tema": "ÁGUA", "Prazo de \nExecução": "1 dia", "Vencimento \ndo Prazo": "2025/07/03", "Situação": "Resolvido", "n° Protocolo": "2025053626741", "Solicitante": "Ouvidoria AMAE", "Motivo": "Usuário / RAUANDER", "gerou PO?": "NÃO", "n° do PO": "-" }, "geometry": { "type": "Point", "coordinates": [ -50.955156, -17.806368 ] } },
{ "type": "Feature", "properties": { "Data de\nAbertura": "2025-07-03", "Horário\nde Abertura": "15:25:00", "Assunto": "Vazamento de Água", "Estrutura": "ASFALTO", "Endereço": "Rua Mariana, n°173A, Quadra 06, Lote 08.", "Bairro": "Jardim Adriana", "Tema": "ÁGUA", "Prazo de \nExecução": "1 dia", "Vencimento \ndo Prazo": "2025/07/04", "Situação": "Resolvido", "n° Protocolo": "2025053120132", "Solicitante": "Ouvidoria AMAE", "Motivo": "Rota / Demanda Fisc.", "gerou PO?": "NÃO", "n° do PO": "-" }, "geometry": { "type": "Point", "coordinates": [ -50.930916, -17.806845 ] } },
{ "type": "Feature", "properties": { "Data de\nAbertura": "2025-07-08", "Horário\nde Abertura": "09:15:00", "Assunto": "Vazamento de Água", "Estrutura": "ASFALTO", "Endereço": "Rua Celina Jayme, Quadra 23, Lote 03", "Bairro": "Vila Mariana I", "Tema": "ÁGUA", "Prazo de \nExecução": "1 dia", "Vencimento \ndo Prazo": "2025/07/09", "Situação": "Resolvido", "n° Protocolo": "2025055639417", "Solicitante": "Ouvidoria AMAE", "Motivo": "Rota / Demanda Fisc.", "gerou PO?": "NÃO", "n° do PO": "-" }, "geometry": { "type": "Point", "coordinates": [ -50.925079, -17.815874 ] } },
{ "type": "Feature", "properties": { "Data de\nAbertura": "2025-07-09", "Horário\nde Abertura": "17:15:00", "Assunto": "TROCA DE TELA\nSANEAGO", "Estrutura": "REL/RAP", "Endereço": "Rua JH14, Quadra 06", "Bairro": "Jardim Helena", "Tema": "ÁGUA", "Prazo de \nExecução": "-", "Vencimento \ndo Prazo": "-", "Situação": "Resolvido", "n° Protocolo": "2025055962765\n2025055970164", "Solicitante": "Ouvidoria AMAE", "Motivo": "Rota / Demanda Fisc.", "gerou PO?": "NÃO", "n° do PO": "-" }, "geometry": { "type": "Point", "coordinates": [ -50.93093, -17.827452 ] } },
{ "type": "Feature", "properties": { "Data de\nAbertura": "2025-07-11", "Horário\nde Abertura": "16:45:00", "Assunto": "Qualidade da Água", "Estrutura": "Água", "Endereço": "Rua José Elias, Quadra 10, Lote 01-B", "Bairro": "Vila Mariana", "Tema": "ÁGUA", "Prazo de \nExecução": "1 dia", "Vencimento \ndo Prazo": "2025/07/12", "Situação": "Resolvido", "n° Protocolo": "2025057420170", "Solicitante": "Ouvidoria AMAE", "Motivo": "Usuário / José Rubens", "gerou PO?": "NÃO", "n° do PO": "-" }, "geometry": { "type": "Point", "coordinates": [ -50.924532, -17.811107 ] } },
{ "type": "Feature", "properties": { "Data de\nAbertura": "2025-07-14", "Horário\nde Abertura": "08:55:00", "Assunto": "Vazamento de Água", "Estrutura": "ASFALTO", "Endereço": "Rua Agenor Diamantino, n°520", "Bairro": "Vila Amália I", "Tema": "ÁGUA", "Prazo de \nExecução": "1 dia", "Vencimento \ndo Prazo": "2025/07/15", "Situação": "Resolvido", "n° Protocolo": "2025057772530", "Solicitante": "Ouvidoria AMAE", "Motivo": "Usuário / Rauander", "gerou PO?": "NÃO", "n° do PO": "-" }, "geometry": { "type": "Point", "coordinates": [ -50.922834, -17.797922 ] } },
{ "type": "Feature", "properties": { "Data de\nAbertura": "2025-07-14", "Horário\nde Abertura": "09:00:00", "Assunto": "Vazamento de Água", "Estrutura": "ASFALTO", "Endereço": "Rua São Cristóvão, Quadra 40, Lote 06 ", "Bairro": "Jardim América Prolongamento", "Tema": "ÁGUA", "Prazo de \nExecução": "1 dia", "Vencimento \ndo Prazo": "2025/07/15", "Situação": "Resolvido", "n° Protocolo": "2025057774591", "Solicitante": "Ouvidoria AMAE", "Motivo": "Usuário / Rauander", "gerou PO?": "NÃO", "n° do PO": "-" }, "geometry": { "type": "Point", "coordinates": [ -50.930632, -17.784556 ] } },
{ "type": "Feature", "properties": { "Data de\nAbertura": "2025-08-01", "Horário\nde Abertura": "09:40:00", "Assunto": "Vazamento de Água", "Estrutura": "ASFALTO", "Endereço": "Rua Tiradentes, n°572 ", "Bairro": "Santo Agostinho ", "Tema": "ÁGUA", "Prazo de \nExecução": "1 dia", "Vencimento \ndo Prazo": "2025/08/02", "Situação": "Resolvido", "n° Protocolo": "2025063776053", "Solicitante": "Ouvidoria AMAE", "Motivo": "Usuário / Rauander", "gerou PO?": "NÃO", "n° do PO": "-" }, "geometry": { "type": "Point", "coordinates": [ -50.904713, -17.779895 ] } },
{ "type": "Feature", "properties": { "Data de\nAbertura": "2025-08-08", "Horário\nde Abertura": "13:44:00", "Assunto": "Vazamento de Água", "Estrutura": "ASFALTO", "Endereço": "Rua Horizonte Azul, Quadra 52, Lote 06", "Bairro": "Jardim Adriana I", "Tema": "ÁGUA", "Prazo de \nExecução": "1 dia", "Vencimento \ndo Prazo": "2025/08/09", "Situação": "Resolvido", "n° Protocolo": "2025066153073", "Solicitante": "Ouvidoria AMAE", "Motivo": "Usuário / Rauander", "gerou PO?": "NÃO", "n° do PO": "-" }, "geometry": { "type": "Point", "coordinates": [ -50.93091, -17.808363 ] } },
{ "type": "Feature", "properties": { "Data de\nAbertura": "2025-08-12", "Horário\nde Abertura": "13:15:00", "Assunto": "Vazamento de Água", "Estrutura": "PASSEIO", "Endereço": "Rua Mestre Luiz de Freitas, Quadra 066, Lote 13", "Bairro": "Martins", "Tema": "ÁGUA", "Prazo de \nExecução": "1 dia", "Vencimento \ndo Prazo": "2025/08/13", "Situação": "Resolvido", "n° Protocolo": "2025067131146\n2025067238609", "Solicitante": "Ouvidoria AMAE", "Motivo": "Usuário / Bruno Saleh", "gerou PO?": "NÃO", "n° do PO": "-" }, "geometry": { "type": "Point", "coordinates": [ -50.911271, -17.765043 ] } },
{ "type": "Feature", "properties": { "Data de\nAbertura": "2025-08-15", "Horário\nde Abertura": "11:40:00", "Assunto": "Vazamento de Água", "Estrutura": "HIDRÔMETRO", "Endereço": "Rua 10, n°103, Quadra 60, Lote 06 ", "Bairro": "Parque Bandeirantes", "Tema": "ÁGUA", "Prazo de \nExecução": "1 dia", "Vencimento \ndo Prazo": "2025/08/16", "Situação": "Resolvido", "n° Protocolo": "2025068167616", "Solicitante": "Ouvidoria AMAE", "Motivo": "Usuário / José Rubens", "gerou PO?": "NÃO", "n° do PO": "-" }, "geometry": { "type": "Point", "coordinates": [ 0.0, 0.0 ] } },
{ "type": "Feature", "properties": { "Data de\nAbertura": "2025-08-15", "Horário\nde Abertura": "13:20:00", "Assunto": "Vazamento de Água", "Estrutura": "ASFALTO", "Endereço": "Rua 105, Quadra 06, Lote 21 ", "Bairro": "Lourdes", "Tema": "ÁGUA", "Prazo de \nExecução": "1 dia", "Vencimento \ndo Prazo": "2025/08/16", "Situação": "Resolvido", "n° Protocolo": "2025068206093", "Solicitante": "Ouvidoria AMAE", "Motivo": "Usuário / Rauander", "gerou PO?": "NÃO", "n° do PO": "-" }, "geometry": { "type": "Point", "coordinates": [ -50.951031, -17.803431 ] } },
{ "type": "Feature", "properties": { "Data de\nAbertura": "2025-08-15", "Horário\nde Abertura": "13:24:00", "Assunto": "Vazamento de Água", "Estrutura": "ASFALTO", "Endereço": "Rua 105, Quadra 05, Lote 21 ", "Bairro": "Lourdes", "Tema": "ÁGUA", "Prazo de \nExecução": "1 dia", "Vencimento \ndo Prazo": "2025/08/16", "Situação": "Resolvido", "n° Protocolo": "2025068207880", "Solicitante": "Ouvidoria AMAE", "Motivo": "Usuário / Rauander", "gerou PO?": "NÃO", "n° do PO": "-" }, "geometry": { "type": "Point", "coordinates": [ -50.953078, -17.804307 ] } },
{ "type": "Feature", "properties": { "Data de\nAbertura": "2025-08-19", "Horário\nde Abertura": "08:35:00", "Assunto": "Vazamento de Água", "Estrutura": "HIDRÔMETRO", "Endereço": "Av. Paulo Roberto Cunha, esquina com rua 131, n°120", "Bairro": "Vitória Régia", "Tema": "ÁGUA", "Prazo de \nExecução": "1 dia", "Vencimento \ndo Prazo": "2025/08/20", "Situação": "Resolvido", "n° Protocolo": "2025068917801", "Solicitante": "Ouvidoria AMAE", "Motivo": "Usuário / José Rubens", "gerou PO?": "NÃO", "n° do PO": "-" }, "geometry": { "type": "Point", "coordinates": [ -50.943961, -17.800569 ] } },
{ "type": "Feature", "properties": { "Data de\nAbertura": "2025-08-20", "Horário\nde Abertura": "13:36:00", "Assunto": "Vazamento de Água", "Estrutura": "ASFALTO", "Endereço": "Rua 12, Quadra 02, Lote 19, n°262", "Bairro": "Parque dos Buritis I", "Tema": "ÁGUA", "Prazo de \nExecução": "1 dia", "Vencimento \ndo Prazo": "2025/08/21", "Situação": "Resolvido", "n° Protocolo": "2025069468296", "Solicitante": "Ouvidoria AMAE", "Motivo": "Usuário / Rauander", "gerou PO?": "-", "n° do PO": "-" }, "geometry": { "type": "Point", "coordinates": [ -50.93849, -17.80992 ] } },
{ "type": "Feature", "properties": { "Data de\nAbertura": "2025-09-02", "Horário\nde Abertura": "08:15:00", "Assunto": "Vazamento de Água", "Estrutura": "ASFALTO", "Endereço": "Rua João Vaiano, Quadra 13, Lote 05", "Bairro": "Odília", "Tema": "ÁGUA", "Prazo de \nExecução": "1 dia", "Vencimento \ndo Prazo": "2025/09/03", "Situação": "Resolvido", "n° Protocolo": "2025073145404", "Solicitante": "Fiscalização / Diandra", "Motivo": "Usuário", "gerou PO?": "NÃO", "n° do PO": "-" }, "geometry": { "type": "Point", "coordinates": [ -50.940095, -17.795304 ] } },
{ "type": "Feature", "properties": { "Data de\nAbertura": "2025-09-02", "Horário\nde Abertura": "15:52:00", "Assunto": "Vazamento de Água", "Estrutura": "ASFALTO", "Endereço": "Avenida João Jota de Azevedo, n° 215", "Bairro": "Jardim das Margaridas", "Tema": "ÁGUA", "Prazo de \nExecução": "1 dia", "Vencimento \ndo Prazo": "2025/09/03", "Situação": "Resolvido", "n° Protocolo": "2025073435950", "Solicitante": "Ouvidoria AMAE", "Motivo": "Rota / Demanda Fisc.", "gerou PO?": "NÃO", "n° do PO": "-" }, "geometry": { "type": "Point", "coordinates": [ -50.90836, -17.791978 ] } },
{ "type": "Feature", "properties": { "Data de\nAbertura": "2025-09-03", "Horário\nde Abertura": "07:49:00", "Assunto": "Vazamento de Água", "Estrutura": "ASFALTO", "Endereço": " Rua 02, Quadra 04, Lote 18", "Bairro": "Parque dos Buritis I", "Tema": "ÁGUA", "Prazo de \nExecução": "1 dia", "Vencimento \ndo Prazo": "2025/09/04", "Situação": "Resolvido", "n° Protocolo": "2025073621974", "Solicitante": "Fiscalização / Diandra", "Motivo": "Rota / Demanda Fisc.", "gerou PO?": "NÃO", "n° do PO": "-" }, "geometry": { "type": "Point", "coordinates": [ -50.937618, -17.806404 ] } },
{ "type": "Feature", "properties": { "Data de\nAbertura": "2025-09-08", "Horário\nde Abertura": "07:35:00", "Assunto": "Vazamento de Água", "Estrutura": "ASFALTO", "Endereço": "Rua 19, n°156", "Bairro": "Jardim Goiás", "Tema": "ÁGUA", "Prazo de \nExecução": "1 dia", "Vencimento \ndo Prazo": "2025/09/09", "Situação": "Resolvido", "n° Protocolo": "2025075360760", "Solicitante": "Fiscalização / Wdson", "Motivo": "Rota / Demanda Fisc.", "gerou PO?": "NÃO", "n° do PO": "-" }, "geometry": { "type": "Point", "coordinates": [ -50.913486, -17.784187 ] } },
{ "type": "Feature", "properties": { "Data de\nAbertura": "2025-09-09", "Horário\nde Abertura": "14:46:00", "Assunto": "Vazamento de Água", "Estrutura": "ASFALTO", "Endereço": "Rua 69, n° 208", "Bairro": "Popular", "Tema": "ÁGUA", "Prazo de \nExecução": "1 dia", "Vencimento \ndo Prazo": "2025/09/10", "Situação": "Resolvido", "n° Protocolo": "2025076181797", "Solicitante": "Ouvidoria AMAE", "Motivo": "Rota / Demanda Fisc.", "gerou PO?": "NÃO", "n° do PO": "-" }, "geometry": { "type": "Point", "coordinates": [ -50.91537, -17.781762 ] } },
{ "type": "Feature", "properties": { "Data de\nAbertura": "2025-09-09", "Horário\nde Abertura": "16:33:00", "Assunto": "Vazamento de Água", "Estrutura": "ASFALTO", "Endereço": "Rua 02, Quadra 05, Lote 01", "Bairro": "Parque dos Buritis I", "Tema": "ÁGUA", "Prazo de \nExecução": "1 dia", "Vencimento \ndo Prazo": "2025/09/10", "Situação": "Resolvido", "n° Protocolo": "2025076251337", "Solicitante": "Ouvidoria AMAE", "Motivo": "Rota / Demanda Fisc.", "gerou PO?": "NÃO", "n° do PO": "-" }, "geometry": { "type": "Point", "coordinates": [ -50.937618, -17.806404 ] } }
]
}
